{"type":"FeatureCollection","features":[{"type":"Feature","geometry":{"type":"Point","coordinates":[-87.78564,41.92331]},"properties":{"SS_N":"S0694","n_feeders":42,"feeders":"F0502,F0504,F0506,F0508,F0510,F0512,F0514,F0516,F0518,F0520,F0522,F0524,F0526,F0528,F0530,F0532,F0534,F0536,F0538,F0540,F0542,F2784,F2832,F2852,F4122,F4124,F4126,F4128,F4130,F4132,F4402,F4404,F4406,F4408,F4566,F4568,F4570,F4572,F4574,F4576,F4578,F5689","SS_HC":10554,"SS_Q":1140,"SS_QC":4,"SS_PR":"0.04","overlap":25,"loc_method":"convergence"}},{"type":"Feature","geometry":{"type":"Point","coordinates":[-87.75337,41.91644]},"properties":{"SS_N":"S0695","n_feeders":38,"feeders":"F0544,F0546,F0548,F0550,F0552,F0554,F0556,F0558,F0560,F0562,F0564,F0566,F0568,F0570,F0572,F0574,F0576,F0578,F0580,F4134,F4688,F4690,F4692,F4694,F4696,F4698,F4700,F4726,F4728,F4730,F4732,F4734,F4736,F4738,F4740,F4742,F4744,F4746","SS_HC":14030,"SS_Q":1295,"SS_QC":3,"SS_PR":"0.04","overlap":21,"loc_method":"convergence"}},{"type":"Feature","geometry":{"type":"Point","coordinates":[-87.68726,41.90069]},"properties":{"SS_N":"S0700","n_feeders":66,"feeders":"F0022,F0065,F0067,F0113,F0115,F0205,F0207,F0209,F0211,F0213,F0391,F0393,F0395,F0397,F0399,F0401,F0403,F0405,F0407,F0409,F0763,F0765,F0767,F0769,F0771,F0773,F0775,F0777,F0779,F0781,F0783,F0785,F0787,F0789,F0791,F0793,F0795,F0797,F0799,F0801,F4136,F4138,F4140,F4142,F4144,F4146,F4148,F4150,F4152,F4154,F4156,F4158,F4160,F4162,F4164,F4166,F4748,F4750,F4752,F4754","SS_HC":33047,"SS_Q":588,"SS_QC":4,"SS_PR":"0.02","overlap":52,"loc_method":"convergence"}},{"type":"Feature","geometry":{"type":"Point","coordinates":[-87.74141,41.94834]},"properties":{"SS_N":"S0701","n_feeders":52,"feeders":"F0610,F0612,F0614,F0616,F0618,F0620,F0622,F0624,F0626,F0628,F0630,F0632,F0634,F0636,F0638,F0640,F0642,F0646,F0648,F0650,F0652,F0654,F0656,F0658,F0660,F0662,F0664,F0666,F0668,F0670,F4168,F4170,F4240,F4242,F4244,F4246,F4248,F4250,F4252,F4254,F4608,F4610,F4612,F4614,F4616,F4618,F4620,F4622,F4624,F5690,F5804,F5805","SS_HC":11629,"SS_Q":296,"SS_QC":3,"SS_PR":"0.04","overlap":33,"loc_method":"convergence"}},{"type":"Feature","geometry":{"type":"Point","coordinates":[-87.65432,41.70349]},"properties":{"SS_N":"S0742","n_feeders":25,"feeders":"F0103,F0187,F0189,F0357,F0359,F0695,F0697,F0699,F0701,F0703,F1369,F1371,F1373,F1375,F1377,F1379,F1381,F1383,F1385,F1387,F4172,F4174,F4176,F4178,F4180","SS_HC":11301,"SS_Q":214,"SS_QC":5,"SS_PR":"0.05","overlap":19,"loc_method":"convergence"}},{"type":"Feature","geometry":{"type":"Point","coordinates":[-87.6538,41.84691]},"properties":{"SS_N":"S0637","n_feeders":45,"feeders":"F0051,F0083,F0147,F0149,F0151,F0275,F0277,F0279,F0281,F0283,F0285,F0533,F0535,F0537,F0539,F0541,F0545,F0547,F0549,F0551,F1047,F1049,F1051,F1053,F1057,F1061,F1063,F1065,F1067,F1069,F1071,F1073,F1075,F1077,F1079,F1081,F1085,F1087,F4182,F4184,F4186,F4188,F4190,F4192,F4194","SS_HC":24351,"SS_Q":25460,"SS_QC":4,"SS_PR":"0.19","overlap":37,"loc_method":"convergence"}},{"type":"Feature","geometry":{"type":"Point","coordinates":[-87.72434,41.82938]},"properties":{"SS_N":"S0522","n_feeders":94,"feeders":"F0394,F0396,F0398,F0400,F0402,F0404,F0406,F0408,F0410,F0412,F0414,F0416,F1150,F1152,F1154,F1156,F1160,F1162,F1164,F1166,F1168,F1170,F1172,F1174,F1176,F1178,F1180,F1182,F1184,F1186,F1188,F1190,F1192,F1196,F1198,F1258,F1260,F1262,F1264,F1266,F1268,F1270,F1272,F1274,F1276,F1278,F1280,F1282,F1284,F1286,F1288,F1290,F1292,F1294,F1296,F1298,F1300,F1302,F1304,F1306","SS_HC":22476,"SS_Q":18488,"SS_QC":22,"SS_PR":"0.15","overlap":30,"loc_method":"convergence"}},{"type":"Feature","geometry":{"type":"Point","coordinates":[-87.69784,41.94423]},"properties":{"SS_N":"S0648","n_feeders":169,"feeders":"F0446,F0448,F0450,F0452,F0454,F0456,F0458,F0460,F0462,F0464,F0466,F0468,F0470,F0472,F0474,F0476,F0478,F0480,F0482,F0484,F0486,F0488,F0490,F0492,F0494,F0496,F0498,F0500,F0782,F0784,F0786,F0788,F0790,F0792,F0794,F0796,F0798,F0800,F0802,F0804,F0806,F0808,F0810,F0812,F0814,F0816,F0818,F0820,F0822,F0824,F0826,F0828,F0830,F0832,F0834,F0836,F0838,F0840,F0842,F0844","SS_HC":18657,"SS_Q":3879,"SS_QC":14,"SS_PR":"0.04","overlap":55,"loc_method":"convergence"}},{"type":"Feature","geometry":{"type":"Point","coordinates":[-87.71192,42.02323]},"properties":{"SS_N":"S0738","n_feeders":75,"feeders":"F2240,F2242,F2244,F2248,F2250,F2252,F2254,F2258,F4119,F4139,F4183,F4241,F4249,F4251,F4253,F4255,F4256,F4258,F4260,F4262,F4264,F4266,F4268,F4270,F4278,F4280,F4282,F4284,F4286,F4288,F4290,F4369,F4371,F4385,F4389,F4393,F4395,F4397,F4541,F4545,F4559,F4627,F4629,F4667,F4677,F4679,F4681,F4683,F4977,F5005,F5007,F5109,F5141,F5143,F5145,F5205,F5221,F5223,F5235,F5237","SS_HC":178302,"SS_Q":4216,"SS_QC":10,"SS_PR":"0.08","overlap":25,"loc_method":"convergence"}},{"type":"Feature","geometry":{"type":"Point","coordinates":[-87.75483,41.86785]},"properties":{"SS_N":"S0693","n_feeders":39,"feeders":"F1336,F1340,F1342,F1344,F1346,F1348,F1350,F1352,F1354,F1356,F1358,F1360,F1362,F1364,F1366,F1368,F1370,F1372,F1374,F1376,F1378,F1380,F1382,F4314,F4316,F4318,F4320,F4322,F4324,F4326,F4328,F4330,F4423,F4733,F5353,F5355,F5357,F5717,F5806","SS_HC":7864,"SS_Q":273,"SS_QC":5,"SS_PR":"0.02","overlap":24,"loc_method":"convergence"}},{"type":"Feature","geometry":{"type":"Point","coordinates":[-87.77679,42.02166]},"properties":{"SS_N":"S0660","n_feeders":55,"feeders":"F1782,F1784,F1786,F1788,F4167,F4177,F4219,F4221,F4247,F4261,F4329,F4331,F4332,F4333,F4334,F4337,F4411,F4539,F4547,F4549,F4551,F4553,F4555,F4561,F4565,F4651,F4707,F4709,F4979,F4981,F4983,F4985,F4987,F4989,F4991,F4993,F4995,F4997,F5009,F5011,F5013,F5017,F5019,F5111,F5113,F5115,F5139,F5147,F5189,F5191,F5193,F5301,F5303,F5305,F5307","SS_HC":93506,"SS_Q":5043,"SS_QC":8,"SS_PR":"0.09","overlap":21,"loc_method":"convergence"}},{"type":"Feature","geometry":{"type":"Point","coordinates":[-87.62703,41.86218]},"properties":{"SS_N":"S0658","n_feeders":44,"feeders":"F1080,F1082,F1086,F1088,F1090,F1092,F1094,F1098,F1100,F1102,F1106,F1108,F1112,F1114,F1116,F1118,F1120,F1122,F1124,F1126,F1128,F1130,F1134,F1136,F1138,F1140,F1142,F1144,F1148,F2310,F2312,F2314,F2316,F2318,F2320,F4372,F4374,F4376,F4378,F4380,F4382,F4384,F4386,F4388","SS_HC":25252,"SS_Q":182,"SS_QC":2,"SS_PR":"0.01","overlap":27,"loc_method":"convergence"}},{"type":"Feature","geometry":{"type":"Point","coordinates":[-87.80723,41.97909]},"properties":{"SS_N":"S0726","n_feeders":45,"feeders":"F0958,F0960,F0962,F0964,F0966,F0968,F0970,F0972,F0974,F0976,F0978,F0980,F0982,F0984,F0986,F0988,F0990,F0992,F0994,F0996,F0998,F1000,F1002,F1004,F1006,F1008,F4259,F4390,F4394,F4396,F4398,F4400,F4646,F4648,F4650,F4652,F4654,F4656,F4658,F4660,F4662,F4664,F4701,F5289,F5291","SS_HC":21683,"SS_Q":87,"SS_QC":3,"SS_PR":"0.03","overlap":23,"loc_method":"convergence"}},{"type":"Feature","geometry":{"type":"Point","coordinates":[-87.67634,41.87371]},"properties":{"SS_N":"S0632","n_feeders":46,"feeders":"F0045,F0073,F0127,F0129,F0235,F0237,F0239,F0451,F0453,F0455,F0457,F0459,F0461,F0463,F0881,F0883,F0885,F0887,F0889,F0891,F0893,F0895,F0897,F0899,F0901,F0903,F0905,F0907,F0909,F4430,F4432,F4434,F4436,F4438,F4442,F4444,F4446,F4448,F4450,F4452,F5705,F5706,F5707,F5708,F5709,F5796","SS_HC":25513,"SS_Q":1279,"SS_QC":2,"SS_PR":"0.04","overlap":26,"loc_method":"convergence"}},{"type":"Feature","geometry":{"type":"Point","coordinates":[-87.73888,41.99905]},"properties":{"SS_N":"S0645","n_feeders":25,"feeders":"F0418,F0420,F0422,F0424,F0426,F0428,F0432,F0434,F0436,F0438,F0440,F0442,F0444,F4456,F4458,F4460,F4462,F4479,F4845,F5517,F5683,F5684,F5685,F5803,F5894","SS_HC":13378,"SS_Q":595,"SS_QC":3,"SS_PR":"0.03","overlap":18,"loc_method":"convergence"}},{"type":"Feature","geometry":{"type":"Point","coordinates":[-87.67642,41.93117]},"properties":{"SS_N":"S0702","n_feeders":40,"feeders":"F0672,F0674,F0676,F0678,F0680,F0682,F0684,F0686,F0688,F0690,F0692,F0694,F0696,F0698,F0700,F0702,F0704,F0706,F0708,F0710,F0712,F0714,F0716,F0718,F0720,F0722,F0724,F0726,F0728,F0730,F0732,F0734,F0736,F0738,F4490,F4492,F4494,F4496,F4498,F5691","SS_HC":27364,"SS_Q":153,"SS_QC":3,"SS_PR":"0.01","overlap":33,"loc_method":"convergence"}},{"type":"Feature","geometry":{"type":"Point","coordinates":[-89.09204,42.2645]},"properties":{"SS_N":"S0682","n_feeders":23,"feeders":"F2700,F2702,F2704,F2706,F2708,F2710,F2712,F2714,F2716,F2718,F2720,F2722,F2724,F2726,F2728,F2730,F4504,F4510,F4512,F4514,F4534,F4536,F4538","SS_HC":4403,"SS_Q":7690,"SS_QC":6,"SS_PR":"0.14","overlap":11,"loc_method":"convergence"}},{"type":"Feature","geometry":{"type":"Point","coordinates":[-89.05209,42.25947]},"properties":{"SS_N":"S0560","n_feeders":10,"feeders":"F1555,F2055,F2732,F2734,F2736,F2738,F2740,F2742,F4516,F4518","SS_HC":2240,"SS_Q":487,"SS_QC":2,"SS_PR":"0.10","overlap":5,"loc_method":"convergence"}},{"type":"Feature","geometry":{"type":"Point","coordinates":[-89.08721,42.31689]},"properties":{"SS_N":"S0680","n_feeders":20,"feeders":"F2640,F2642,F2644,F2646,F2648,F2650,F2652,F2654,F2656,F2658,F2660,F2662,F2664,F2666,F2668,F2670,F4520,F4522,F4524,F4526","SS_HC":4102,"SS_Q":15925,"SS_QC":6,"SS_PR":"0.38","overlap":12,"loc_method":"convergence"}},{"type":"Feature","geometry":{"type":"Point","coordinates":[-89.13544,42.26429]},"properties":{"SS_N":"S0679","n_feeders":13,"feeders":"F2620,F2622,F2624,F2626,F2628,F2630,F2632,F2634,F2636,F2638,F4528,F4530,F4532","SS_HC":119,"SS_Q":29621,"SS_QC":13,"SS_PR":"0.97","overlap":8,"loc_method":"convergence"}},{"type":"Feature","geometry":{"type":"Point","coordinates":[-87.61866,41.78115]},"properties":{"SS_N":"S0667","n_feeders":76,"feeders":"F0027,F0053,F0089,F0159,F0161,F0297,F0299,F0301,F0303,F0305,F0575,F0577,F0579,F0581,F0583,F0585,F0587,F0589,F0591,F0593,F1133,F1135,F1137,F1139,F1141,F1143,F1145,F1147,F1149,F1151,F1153,F1155,F1157,F1159,F1161,F1163,F1165,F1167,F1169,F1487,F1585,F1587,F1781,F1783,F1785,F2175,F2177,F2179,F2183,F2185,F2576,F2578,F2580,F2582,F2584,F2586,F2777,F2887,F3035,F3329","SS_HC":9471,"SS_Q":5259,"SS_QC":2,"SS_PR":"0.10","overlap":23,"loc_method":"convergence"}},{"type":"Feature","geometry":{"type":"Point","coordinates":[-87.656,41.91504]},"properties":{"SS_N":"S0713","n_feeders":52,"feeders":"F0886,F0888,F0890,F0892,F0894,F0896,F0898,F0900,F0902,F0904,F0906,F0908,F0912,F0914,F0916,F0918,F0920,F0922,F0924,F0926,F0928,F0930,F0932,F0934,F0936,F0938,F0940,F0942,F0944,F0946,F0948,F0950,F0952,F0954,F0956,F4602,F4604,F4606,F4626,F4628,F4630,F4632,F4634,F4636,F4638,F4640,F4642,F4644,F5568,F5569,F5570,F5695","SS_HC":26323,"SS_Q":437,"SS_QC":1,"SS_PR":"0.01","overlap":30,"loc_method":"convergence"}},{"type":"Feature","geometry":{"type":"Point","coordinates":[-87.64641,41.90288]},"properties":{"SS_N":"S0735","n_feeders":52,"feeders":"F0021,F0049,F0081,F0143,F0145,F0265,F0267,F0269,F0271,F0273,F0513,F0515,F0517,F0519,F0521,F0523,F0525,F0527,F0529,F0531,F1007,F1009,F1011,F1013,F1015,F1017,F1019,F1021,F1023,F1025,F1027,F1029,F1031,F1033,F1035,F1037,F1039,F1041,F1043,F1045,F4702,F4704,F4706,F4708,F4710,F4712,F4714,F4716,F4718,F4720,F4724,F5712","SS_HC":31964,"SS_Q":512,"SS_QC":2,"SS_PR":"0.03","overlap":27,"loc_method":"convergence"}},{"type":"Feature","geometry":{"type":"Point","coordinates":[-87.62765,41.90735]},"properties":{"SS_N":"S0504","n_feeders":1,"feeders":"F4722","SS_HC":516,"SS_Q":0,"SS_QC":0,"SS_PR":"0.01","overlap":1,"loc_method":"single-feeder (approx)"}},{"type":"Feature","geometry":{"type":"Point","coordinates":[-87.76537,42.08185]},"properties":{"SS_N":"S0550","n_feeders":11,"feeders":"F4175,F4239,F4365,F4617,F4619,F4621,F5121,F5123,F5125,F5127,F5129","SS_HC":6011,"SS_Q":2937,"SS_QC":2,"SS_PR":"0.15","overlap":9,"loc_method":"convergence"}},{"type":"Feature","geometry":{"type":"Point","coordinates":[-87.69584,42.05116]},"properties":{"SS_N":"S0708","n_feeders":55,"feeders":"F1954,F1956,F1962,F1964,F4127,F4141,F4231,F4233,F4235,F4343,F4351,F4353,F4383,F4405,F4533,F4575,F4577,F4589,F4591,F4593,F4595,F4597,F4603,F4655,F4659,F4699,F4955,F5037,F5039,F5041,F5043,F5063,F5065,F5067,F5069,F5071,F5073,F5075,F5077,F5079,F5081,F5083,F5093,F5095,F5107,F5131,F5195,F5197,F5207,F5209,F5285,F5287,F5513,F5581,F5583","SS_HC":28555,"SS_Q":944,"SS_QC":4,"SS_PR":"0.05","overlap":26,"loc_method":"convergence"}},{"type":"Feature","geometry":{"type":"Point","coordinates":[-87.75454,42.051]},"properties":{"SS_N":"S0741","n_feeders":68,"feeders":"F2260,F2264,F2266,F2268,F2270,F2272,F4115,F4121,F4143,F4181,F4185,F4237,F4257,F4323,F4325,F4335,F4363,F4367,F4381,F4387,F4403,F4573,F4611,F4613,F4615,F4633,F4653,F4661,F4665,F4673,F4687,F4689,F4693,F4695,F4697,F4965,F4967,F4969,F4971,F5003,F5033,F5035,F5103,F5105,F5117,F5119,F5135,F5153,F5155,F5199,F5211,F5219,F5225,F5229,F5233,F5263,F5265,F5267,F5271,F5273","SS_HC":94686,"SS_Q":2088,"SS_QC":5,"SS_PR":"0.04","overlap":15,"loc_method":"convergence"}},{"type":"Feature","geometry":{"type":"Point","coordinates":[-87.78724,42.12808]},"properties":{"SS_N":"S0529","n_feeders":22,"feeders":"F4135,F4159,F4205,F4297,F4299,F4481,F4483,F4485,F4487,F4623,F4625,F4847,F4849,F4851,F4853,F4855,F4857,F4859,F4861,F4863,F5133,F5137","SS_HC":10574,"SS_Q":230,"SS_QC":3,"SS_PR":"0.04","overlap":13,"loc_method":"convergence"}},{"type":"Feature","geometry":{"type":"Point","coordinates":[-87.83177,42.05617]},"properties":{"SS_N":"S0684","n_feeders":29,"feeders":"F4145,F4179,F4243,F4245,F4373,F4375,F4377,F4379,F4635,F4637,F4639,F4641,F4643,F4645,F4647,F5157,F5159,F5161,F5163,F5165,F5167,F5169,F5171,F5173,F5175,F5177,F5179,F5181,F5183","SS_HC":12856,"SS_Q":6964,"SS_QC":12,"SS_PR":"0.13","overlap":24,"loc_method":"convergence"}},{"type":"Feature","geometry":{"type":"Point","coordinates":[-87.82562,42.18663]},"properties":{"SS_N":"S0709","n_feeders":50,"feeders":"F1970,F1972,F1974,F4129,F4149,F4161,F4173,F4223,F4225,F4227,F4355,F4357,F4391,F4399,F4407,F4409,F4503,F4505,F4557,F4563,F4599,F4601,F4649,F4657,F4669,F4685,F4703,F4705,F4895,F4897,F4899,F4999,F5001,F5015,F5085,F5087,F5089,F5091,F5185,F5187,F5201,F5203,F5227,F5257,F5259,F5293,F5295,F5297,F5299,F5309","SS_HC":45580,"SS_Q":2563,"SS_QC":5,"SS_PR":"0.06","overlap":11,"loc_method":"convergence"}},{"type":"Feature","geometry":{"type":"Point","coordinates":[-87.89564,42.04932]},"properties":{"SS_N":"S0707","n_feeders":50,"feeders":"F1940,F1942,F1944,F1946,F1948,F1950,F1952,F3176,F3178,F3708,F3710,F3712,F4050,F4052,F4054,F4171,F4229,F4327,F4347,F4349,F4359,F4543,F4581,F4583,F4585,F4587,F4605,F4607,F4609,F4663,F4711,F4953,F4973,F4975,F5047,F5049,F5051,F5053,F5055,F5057,F5059,F5061,F5097,F5099,F5101,F5213,F5215,F5217,F5269,F5600","SS_HC":69576,"SS_Q":8127,"SS_QC":6,"SS_PR":"0.09","overlap":16,"loc_method":"convergence"}},{"type":"Feature","geometry":{"type":"Point","coordinates":[-87.96163,42.18123]},"properties":{"SS_N":"S0644","n_feeders":24,"feeders":"F4157,F4201,F4203,F4291,F4293,F4295,F4467,F4469,F4471,F4473,F4475,F4477,F4821,F4823,F4825,F4827,F4829,F4831,F4833,F4835,F4837,F4839,F4841,F4843","SS_HC":12798,"SS_Q":5268,"SS_QC":6,"SS_PR":"0.11","overlap":21,"loc_method":"convergence"}},{"type":"Feature","geometry":{"type":"Point","coordinates":[-87.84044,42.15266]},"properties":{"SS_N":"S0530","n_feeders":29,"feeders":"F4116,F4207,F4209,F4301,F4303,F4305,F4307,F4489,F4491,F4493,F4495,F4497,F4499,F4501,F4865,F4867,F4869,F4871,F4873,F4875,F4877,F4879,F4881,F4883,F4885,F4887,F4889,F4891,F4893","SS_HC":15092,"SS_Q":971,"SS_QC":7,"SS_PR":"0.05","overlap":28,"loc_method":"convergence"}},{"type":"Feature","geometry":{"type":"Point","coordinates":[-87.88776,42.0167]},"properties":{"SS_N":"S0532","n_feeders":10,"feeders":"F4211,F4309,F4311,F4507,F4509,F4901,F4903,F4905,F4907,F4909","SS_HC":4999,"SS_Q":1080,"SS_QC":2,"SS_PR":"0.21","overlap":9,"loc_method":"convergence"}},{"type":"Feature","geometry":{"type":"Point","coordinates":[-87.90312,42.08127]},"properties":{"SS_N":"S0533","n_feeders":12,"feeders":"F4137,F4213,F4313,F4511,F4513,F4515,F4911,F4913,F4915,F4917,F4919,F4921","SS_HC":5559,"SS_Q":643,"SS_QC":4,"SS_PR":"0.13","overlap":10,"loc_method":"convergence"}},{"type":"Feature","geometry":{"type":"Point","coordinates":[-87.87623,42.32196]},"properties":{"SS_N":"S0724","n_feeders":16,"feeders":"F2068,F2070,F2072,F2074,F4768,F4770,F4938,F4940,F4942,F5102,F5104,F5118,F5138,F5140,F5146,F5663","SS_HC":68172,"SS_Q":520,"SS_QC":2,"SS_PR":"0.46","overlap":6,"loc_method":"convergence"}},{"type":"Feature","geometry":{"type":"Point","coordinates":[-87.82839,42.35773]},"properties":{"SS_N":"S0523","n_feeders":52,"feeders":"F1848,F1850,F1852,F1854,F1858,F1862,F1864,F4774,F4776,F4778,F4780,F4886,F4888,F4890,F4892,F4894,F4896,F4898,F4924,F4926,F4928,F4930,F4932,F4998,F5000,F5002,F5004,F5006,F5008,F5010,F5012,F5014,F5016,F5018,F5026,F5028,F5030,F5098,F5100,F5106,F5108,F5110,F5134,F5142,F5144,F5170,F5536,F5573,F5646,F5647,F5648,F5649","SS_HC":22061,"SS_Q":20435,"SS_QC":17,"SS_PR":"0.28","overlap":9,"loc_method":"convergence"}},{"type":"Feature","geometry":{"type":"Point","coordinates":[-88.10572,42.36314]},"properties":{"SS_N":"S0704","n_feeders":33,"feeders":"F0005,F1930,F1934,F1936,F1938,F3452,F3454,F3456,F3462,F3464,F4832,F4834,F4836,F4884,F4900,F4902,F4904,F4906,F4908,F4910,F4912,F4914,F4916,F4918,F4920,F4922,F4934,F4936,F5112,F5114,F5116,F5148,F5658","SS_HC":48589,"SS_Q":34419,"SS_QC":17,"SS_PR":"0.83","overlap":16,"loc_method":"convergence"}},{"type":"Feature","geometry":{"type":"Point","coordinates":[-87.96551,42.3787]},"properties":{"SS_N":"S0555","n_feeders":20,"feeders":"F5150,F5152,F5154,F5156,F5158,F5160,F5162,F5164,F5166,F5168,F5172,F5174,F5176,F5178,F5180,F5182,F5184,F5186,F5188,F5190","SS_HC":6765,"SS_Q":13638,"SS_QC":12,"SS_PR":"0.31","overlap":12,"loc_method":"convergence"}},{"type":"Feature","geometry":{"type":"Point","coordinates":[-87.71364,41.80508]},"properties":{"SS_N":"S0720","n_feeders":29,"feeders":"F0101,F0183,F0185,F0349,F0351,F0353,F0677,F0679,F0681,F0683,F0685,F0687,F1337,F1339,F1341,F1343,F1345,F1347,F1349,F1351,F1353,F1355,F1357,F1359,F5192,F5194,F5196,F5198,F5200","SS_HC":12709,"SS_Q":6290,"SS_QC":4,"SS_PR":"0.10","overlap":18,"loc_method":"convergence"}},{"type":"Feature","geometry":{"type":"Point","coordinates":[-88.62907,42.25381]},"properties":{"SS_N":"S0655","n_feeders":39,"feeders":"F1756,F1758,F1760,F1762,F1766,F1853,F2337,F3450,F3592,F3702,F4108,F5202,F5204,F5210,F5212,F5214,F5216,F5218,F5226,F5228,F5230,F5240,F5242,F5244,F5246,F5248,F5250,F5302,F5304,F5330,F5332,F5334,F5336,F5350,F5378,F5380,F5402,F5468,F5640","SS_HC":30328,"SS_Q":54941,"SS_QC":23,"SS_PR":"1.35","overlap":7,"loc_method":"convergence"}},{"type":"Feature","geometry":{"type":"Point","coordinates":[-88.86568,42.2765]},"properties":{"SS_N":"S0654","n_feeders":28,"feeders":"F1744,F1746,F1748,F1750,F1752,F5206,F5208,F5220,F5222,F5252,F5254,F5256,F5258,F5260,F5262,F5264,F5288,F5290,F5292,F5294,F5296,F5298,F5300,F5306,F5308,F5310,F5316,F5318","SS_HC":9603,"SS_Q":58565,"SS_QC":20,"SS_PR":"1.51","overlap":7,"loc_method":"convergence"}},{"type":"Feature","geometry":{"type":"Point","coordinates":[-88.69166,41.98548]},"properties":{"SS_N":"S0480","n_feeders":5,"feeders":"F5224,F5232,F5234,F5236,F5238","SS_HC":165,"SS_Q":0,"SS_QC":0,"SS_PR":"0.06","overlap":4,"loc_method":"convergence"}},{"type":"Feature","geometry":{"type":"Point","coordinates":[-89.6195,42.30225]},"properties":{"SS_N":"S0653","n_feeders":23,"feeders":"F0014,F0016,F1734,F1738,F1740,F5266,F5268,F5270,F5272,F5274,F5276,F5278,F5280,F5282,F5284,F5286,F5368,F5370,F5372,F5394,F5396,F5398,F5400","SS_HC":12296,"SS_Q":28239,"SS_QC":13,"SS_PR":"1.08","overlap":15,"loc_method":"convergence"}},{"type":"Feature","geometry":{"type":"Point","coordinates":[-89.2599,42.12969]},"properties":{"SS_N":"S0686","n_feeders":11,"feeders":"F1866,F1868,F5312,F5314,F5320,F5322,F5324,F5382,F5384,F5392,F5558","SS_HC":68,"SS_Q":30486,"SS_QC":8,"SS_PR":"1.16","overlap":3,"loc_method":"convergence"}},{"type":"Feature","geometry":{"type":"Point","coordinates":[-89.33021,42.01515]},"properties":{"SS_N":"S0656","n_feeders":12,"feeders":"F1768,F1770,F5326,F5328,F5340,F5342,F5344,F5346,F5348,F5386,F5388,F5390","SS_HC":513,"SS_Q":75854,"SS_QC":21,"SS_PR":"2.23","overlap":3,"loc_method":"convergence"}},{"type":"Feature","geometry":{"type":"Point","coordinates":[-87.94482,42.17056]},"properties":{"SS_N":"S0544","n_feeders":12,"feeders":"F4169,F4339,F4341,F4567,F4569,F4571,F5021,F5023,F5025,F5027,F5029,F5031","SS_HC":6255,"SS_Q":1096,"SS_QC":3,"SS_PR":"0.13","overlap":8,"loc_method":"convergence"}},{"type":"Feature","geometry":{"type":"Point","coordinates":[-87.91741,42.11656]},"properties":{"SS_N":"S0534","n_feeders":10,"feeders":"F4163,F4315,F4321,F4517,F4519,F4923,F4925,F4927,F4939,F4949","SS_HC":5832,"SS_Q":550,"SS_QC":2,"SS_PR":"0.03","overlap":7,"loc_method":"convergence"}},{"type":"Feature","geometry":{"type":"Point","coordinates":[-87.92055,42.11597]},"properties":{"SS_N":"S0650","n_feeders":18,"feeders":"F4125,F4215,F4317,F4319,F4521,F4523,F4525,F4527,F4529,F4929,F4931,F4933,F4935,F4937,F4941,F4943,F4945,F4947","SS_HC":10837,"SS_Q":2498,"SS_QC":7,"SS_PR":"0.07","overlap":12,"loc_method":"convergence"}},{"type":"Feature","geometry":{"type":"Point","coordinates":[-87.86731,42.27908]},"properties":{"SS_N":"S0537","n_feeders":7,"feeders":"F4165,F4535,F4537,F4957,F4961,F4963,F5544","SS_HC":2549,"SS_Q":0,"SS_QC":0,"SS_PR":"0.12","overlap":6,"loc_method":"convergence"}},{"type":"Feature","geometry":{"type":"Point","coordinates":[-88.12014,42.33227]},"properties":{"SS_N":"S0539","n_feeders":15,"feeders":"F4782,F4784,F4786,F4788,F4790,F4792,F4794,F4796,F4798,F4800,F4802,F4804,F4806,F4808,F4810","SS_HC":2409,"SS_Q":19580,"SS_QC":10,"SS_PR":"0.39","overlap":12,"loc_method":"convergence"}},{"type":"Feature","geometry":{"type":"Point","coordinates":[-88.09003,42.46086]},"properties":{"SS_N":"S0540","n_feeders":10,"feeders":"F4812,F4814,F4816,F4818,F4820,F4822,F4824,F4826,F4828,F4830","SS_HC":1782,"SS_Q":31864,"SS_QC":12,"SS_PR":"0.82","overlap":8,"loc_method":"convergence"}},{"type":"Feature","geometry":{"type":"Point","coordinates":[-87.87578,42.35412]},"properties":{"SS_N":"S0542","n_feeders":23,"feeders":"F4838,F4840,F4842,F4844,F4846,F4848,F4850,F4852,F4854,F4856,F4858,F4860,F4862,F4864,F4866,F4868,F4870,F4872,F4874,F4876,F4878,F5530,F5560","SS_HC":5837,"SS_Q":18916,"SS_QC":13,"SS_PR":"0.24","overlap":18,"loc_method":"convergence"}},{"type":"Feature","geometry":{"type":"Point","coordinates":[-87.9853,42.24472]},"properties":{"SS_N":"S0683","n_feeders":43,"feeders":"F1856,F1860,F3594,F3596,F3598,F4880,F4882,F5020,F5022,F5024,F5032,F5034,F5036,F5038,F5040,F5042,F5044,F5046,F5048,F5050,F5052,F5054,F5056,F5058,F5060,F5062,F5064,F5066,F5068,F5070,F5072,F5074,F5076,F5078,F5080,F5082,F5084,F5086,F5088,F5090,F5092,F5094,F5096","SS_HC":20346,"SS_Q":25788,"SS_QC":12,"SS_PR":"0.17","overlap":30,"loc_method":"convergence"}},{"type":"Feature","geometry":{"type":"Point","coordinates":[-88.05687,42.37881]},"properties":{"SS_N":"S0548","n_feeders":10,"feeders":"F4944,F4946,F4948,F4950,F4952,F4954,F4956,F4958,F4960,F5576","SS_HC":3212,"SS_Q":31,"SS_QC":1,"SS_PR":"0.23","overlap":9,"loc_method":"convergence"}},{"type":"Feature","geometry":{"type":"Point","coordinates":[-87.97716,42.31266]},"properties":{"SS_N":"S0676","n_feeders":18,"feeders":"F4962,F4964,F4966,F4968,F4970,F4972,F4974,F4976,F4978,F4980,F4982,F4984,F4986,F4988,F4990,F4992,F4994,F4996","SS_HC":3996,"SS_Q":12722,"SS_QC":18,"SS_PR":"0.46","overlap":17,"loc_method":"convergence"}},{"type":"Feature","geometry":{"type":"Point","coordinates":[-87.85589,42.4662]},"properties":{"SS_N":"S0554","n_feeders":7,"feeders":"F5120,F5122,F5124,F5126,F5128,F5130,F5132","SS_HC":342,"SS_Q":20935,"SS_QC":10,"SS_PR":"0.76","overlap":4,"loc_method":"convergence"}},{"type":"Feature","geometry":{"type":"Point","coordinates":[-89.69692,41.78523]},"properties":{"SS_N":"S0663","n_feeders":16,"feeders":"F1810,F1812,F1814,F1816,F3017,F3295,F3299,F3307,F3319,F3847,F3849,F3859,F3865,F3897,F3899,F5338","SS_HC":21333,"SS_Q":13064,"SS_QC":6,"SS_PR":"1.05","overlap":5,"loc_method":"convergence"}},{"type":"Feature","geometry":{"type":"Point","coordinates":[-89.82806,42.35893]},"properties":{"SS_N":"S0688","n_feeders":15,"feeders":"F1870,F1872,F5352,F5354,F5356,F5358,F5360,F5362,F5364,F5374,F5376,F5404,F5494,F5514,F5519","SS_HC":0,"SS_Q":87341,"SS_QC":20,"SS_PR":"3.08","overlap":3,"loc_method":"convergence"}},{"type":"Feature","geometry":{"type":"Point","coordinates":[-89.76906,41.94079]},"properties":{"SS_N":"S0056","n_feeders":1,"feeders":"F5366","SS_HC":0,"SS_Q":0,"SS_QC":0,"SS_PR":"0.34","overlap":1,"loc_method":"single-feeder (approx)"}},{"type":"Feature","geometry":{"type":"Point","coordinates":[-89.30244,41.83849]},"properties":{"SS_N":"S0068","n_feeders":2,"feeders":"F5406,F5408","SS_HC":0,"SS_Q":0,"SS_QC":0,"SS_PR":"0.61","overlap":2,"loc_method":"convergence"}},{"type":"Feature","geometry":{"type":"Point","coordinates":[-89.69506,42.28983]},"properties":{"SS_N":"S0557","n_feeders":4,"feeders":"F5410,F5412,F5414,F5416","SS_HC":141,"SS_Q":13876,"SS_QC":6,"SS_PR":"0.78","overlap":3,"loc_method":"convergence"}},{"type":"Feature","geometry":{"type":"Point","coordinates":[-88.79147,41.95056]},"properties":{"SS_N":"S0559","n_feeders":11,"feeders":"F5418,F5420,F5422,F5424,F5426,F5428,F5430,F5432,F5434,F5436,F5438","SS_HC":2594,"SS_Q":37220,"SS_QC":23,"SS_PR":"1.11","overlap":9,"loc_method":"convergence"}},{"type":"Feature","geometry":{"type":"Point","coordinates":[-88.72787,41.93634]},"properties":{"SS_N":"S0736","n_feeders":10,"feeders":"F2212,F5440,F5442,F5444,F5446,F5448,F5450,F5452,F5454,F5456","SS_HC":1470,"SS_Q":42365,"SS_QC":20,"SS_PR":"1.04","overlap":9,"loc_method":"convergence"}},{"type":"Feature","geometry":{"type":"Point","coordinates":[-88.87786,41.99187]},"properties":{"SS_N":"S0069","n_feeders":1,"feeders":"F5458","SS_HC":0,"SS_Q":0,"SS_QC":0,"SS_PR":"1.04","overlap":1,"loc_method":"single-feeder (approx)"}},{"type":"Feature","geometry":{"type":"Point","coordinates":[-88.72491,41.8783]},"properties":{"SS_N":"S0070","n_feeders":1,"feeders":"F5460","SS_HC":0,"SS_Q":0,"SS_QC":0,"SS_PR":"1.74","overlap":1,"loc_method":"single-feeder (approx)"}},{"type":"Feature","geometry":{"type":"Point","coordinates":[-88.62054,41.91192]},"properties":{"SS_N":"S0071","n_feeders":2,"feeders":"F5462,F5464","SS_HC":0,"SS_Q":0,"SS_QC":0,"SS_PR":"0.40","overlap":1,"loc_method":"convergence"}},{"type":"Feature","geometry":{"type":"Point","coordinates":[-88.73506,41.89725]},"properties":{"SS_N":"S0072","n_feeders":2,"feeders":"F5466,F5534","SS_HC":601,"SS_Q":0,"SS_QC":0,"SS_PR":"0.04","overlap":2,"loc_method":"convergence"}},{"type":"Feature","geometry":{"type":"Point","coordinates":[-87.84142,42.21171]},"properties":{"SS_N":"S0525","n_feeders":20,"feeders":"F4155,F4199,F4285,F4457,F4459,F4799,F4801,F4803,F4805,F4807,F4809,F5470,F5472,F5474,F5476,F5478,F5480,F5482,F5484,F5486","SS_HC":15490,"SS_Q":3213,"SS_QC":6,"SS_PR":"0.07","overlap":16,"loc_method":"convergence"}},{"type":"Feature","geometry":{"type":"Point","coordinates":[-87.93135,42.14346]},"properties":{"SS_N":"S0526","n_feeders":11,"feeders":"F4123,F4287,F4289,F4461,F4463,F4465,F4811,F4813,F4815,F4817,F4819","SS_HC":6246,"SS_Q":0,"SS_QC":0,"SS_PR":"0.09","overlap":10,"loc_method":"convergence"}},{"type":"Feature","geometry":{"type":"Point","coordinates":[-87.88261,42.0022]},"properties":{"SS_N":"S0692","n_feeders":27,"feeders":"F4131,F4187,F4263,F4265,F4413,F4415,F4417,F4713,F4715,F4717,F4719,F4721,F4723,F5311,F5313,F5315,F5317,F5319,F5321,F5323,F5325,F5327,F5329,F5331,F5333,F5335,F5337","SS_HC":12672,"SS_Q":955,"SS_QC":3,"SS_PR":"0.04","overlap":20,"loc_method":"convergence"}},{"type":"Feature","geometry":{"type":"Point","coordinates":[-87.79185,41.88768]},"properties":{"SS_N":"S0599","n_feeders":33,"feeders":"F2816,F2820,F2822,F4189,F4193,F4267,F4419,F4421,F4431,F4439,F4441,F4445,F4725,F4727,F4729,F4731,F4767,F4769,F4775,F4777,F5339,F5341,F5343,F5345,F5347,F5349,F5351,F5401,F5421,F5427,F5429,F5441,F5443","SS_HC":8846,"SS_Q":60,"SS_QC":2,"SS_PR":"0.06","overlap":25,"loc_method":"convergence"}},{"type":"Feature","geometry":{"type":"Point","coordinates":[-87.75485,41.8518]},"properties":{"SS_N":"S0717","n_feeders":22,"feeders":"F3042,F3044,F3046,F3048,F3050,F3052,F3054,F3056,F3058,F3060,F3062,F3064,F3066,F4151,F4429,F4735,F4741,F4743,F4745,F5359,F5375,F5379","SS_HC":6540,"SS_Q":3000,"SS_QC":2,"SS_PR":"0.10","overlap":19,"loc_method":"convergence"}},{"type":"Feature","geometry":{"type":"Point","coordinates":[-87.74884,41.8423]},"properties":{"SS_N":"S0712","n_feeders":25,"feeders":"F2772,F2776,F2778,F2954,F2956,F2958,F2960,F2962,F2964,F2966,F2968,F2970,F2972,F2974,F2976,F2978,F4191,F4273,F4427,F4737,F4757,F5361,F5371,F5373,F5377","SS_HC":5726,"SS_Q":1300,"SS_QC":3,"SS_PR":"0.07","overlap":11,"loc_method":"convergence"}},{"type":"Feature","geometry":{"type":"Point","coordinates":[-87.82305,41.80281]},"properties":{"SS_N":"S0711","n_feeders":56,"feeders":"F0013,F1978,F1980,F1982,F1984,F1986,F2549,F2788,F2790,F2794,F2796,F2798,F2802,F2804,F2806,F2814,F2824,F2828,F2880,F2888,F2924,F2926,F2928,F2930,F2932,F2934,F2936,F2938,F2940,F2942,F2944,F2946,F2948,F2950,F2986,F4279,F4433,F4435,F4747,F4749,F4755,F4759,F4779,F4793,F5363,F5381,F5383,F5387,F5389,F5395,F5397,F5445,F5591,F5594,F5595,F5659","SS_HC":96074,"SS_Q":8518,"SS_QC":8,"SS_PR":"0.14","overlap":16,"loc_method":"convergence"}},{"type":"Feature","geometry":{"type":"Point","coordinates":[-87.87237,41.88453]},"properties":{"SS_N":"S0721","n_feeders":81,"feeders":"F1655,F1921,F2044,F2046,F2048,F2050,F2054,F2056,F2058,F2060,F2062,F2064,F2066,F2475,F2481,F2780,F2782,F2810,F2836,F2838,F2854,F2856,F2858,F2860,F2862,F2984,F3072,F3074,F3076,F3086,F3088,F3090,F3092,F3094,F3096,F3098,F3100,F3102,F3104,F3106,F3108,F3110,F3112,F3114,F3116,F3122,F3192,F3200,F3202,F3204,F3206,F3210,F3212,F3214,F3216,F3218,F3220,F3224,F4153,F4269","SS_HC":224362,"SS_Q":29382,"SS_QC":26,"SS_PR":"0.18","overlap":26,"loc_method":"convergence"}},{"type":"Feature","geometry":{"type":"Point","coordinates":[-87.76754,41.7626]},"properties":{"SS_N":"S0649","n_feeders":32,"feeders":"F0057,F0643,F1267,F1700,F1702,F1704,F1706,F1708,F1710,F1712,F1714,F1716,F1718,F2743,F2792,F2807,F2812,F2826,F2873,F3005,F3251,F3273,F3763,F3765,F3799,F3805,F3807,F3811,F3813,F4117,F4271,F5391","SS_HC":188645,"SS_Q":4698,"SS_QC":7,"SS_PR":"0.08","overlap":11,"loc_method":"convergence"}},{"type":"Feature","geometry":{"type":"Point","coordinates":[-87.79286,41.75267]},"properties":{"SS_N":"S0601","n_feeders":10,"feeders":"F4275,F4437,F4761,F4763,F4765,F5411,F5413,F5415,F5417,F5419","SS_HC":6213,"SS_Q":58,"SS_QC":2,"SS_PR":"0.11","overlap":8,"loc_method":"convergence"}},{"type":"Feature","geometry":{"type":"Point","coordinates":[-87.81691,41.87283]},"properties":{"SS_N":"S0716","n_feeders":24,"feeders":"F3008,F3014,F3016,F3018,F3020,F3022,F3024,F3026,F3028,F3030,F3032,F3034,F3036,F3226,F3230,F3252,F3254,F4277,F4771,F4773,F5431,F5433,F5596,F5597","SS_HC":5925,"SS_Q":2985,"SS_QC":7,"SS_PR":"0.10","overlap":14,"loc_method":"convergence"}},{"type":"Feature","geometry":{"type":"Point","coordinates":[-87.80861,41.73824]},"properties":{"SS_N":"S0605","n_feeders":12,"feeders":"F4281,F4449,F4451,F4785,F4787,F4789,F5459,F5461,F5463,F5465,F5467,F5469","SS_HC":6491,"SS_Q":520,"SS_QC":2,"SS_PR":"0.07","overlap":8,"loc_method":"convergence"}},{"type":"Feature","geometry":{"type":"Point","coordinates":[-87.88954,41.93578]},"properties":{"SS_N":"S0732","n_feeders":78,"feeders":"F1423,F1947,F2156,F2158,F2160,F2162,F2164,F2166,F2168,F2170,F2172,F2174,F2176,F2178,F2180,F2182,F2184,F2186,F2521,F2525,F2527,F2529,F2830,F2834,F2840,F2842,F2844,F2846,F2848,F2850,F2952,F2980,F2982,F2988,F3006,F3038,F3040,F3068,F3070,F3078,F3080,F3082,F3084,F3118,F3120,F3124,F3132,F3134,F3136,F3138,F3140,F3142,F3144,F3146,F3148,F3150,F3152,F3154,F3156,F3158","SS_HC":223823,"SS_Q":14204,"SS_QC":13,"SS_PR":"0.08","overlap":30,"loc_method":"convergence"}},{"type":"Feature","geometry":{"type":"Point","coordinates":[-87.78505,41.83601]},"properties":{"SS_N":"S0611","n_feeders":18,"feeders":"F2750,F2766,F2768,F2770,F2774,F2990,F2992,F2994,F2996,F2998,F3000,F3002,F3256,F3258,F3260,F3262,F5475,F5477","SS_HC":3920,"SS_Q":31,"SS_QC":1,"SS_PR":"0.04","overlap":12,"loc_method":"convergence"}},{"type":"Feature","geometry":{"type":"Point","coordinates":[-87.86665,41.83601]},"properties":{"SS_N":"S0664","n_feeders":18,"feeders":"F2746,F2748,F2752,F2754,F2756,F2758,F2760,F2762,F2764,F4113,F4283,F4453,F4455,F4795,F4797,F5479,F5481,F5483","SS_HC":10668,"SS_Q":650,"SS_QC":6,"SS_PR":"0.07","overlap":15,"loc_method":"convergence"}},{"type":"Feature","geometry":{"type":"Point","coordinates":[-87.91008,41.89441]},"properties":{"SS_N":"S0607","n_feeders":11,"feeders":"F2864,F2866,F2868,F2870,F2872,F2874,F2876,F2878,F2882,F2884,F2886","SS_HC":3104,"SS_Q":9505,"SS_QC":6,"SS_PR":"0.37","overlap":7,"loc_method":"convergence"}},{"type":"Feature","geometry":{"type":"Point","coordinates":[-87.79069,41.92406]},"properties":{"SS_N":"S0699","n_feeders":21,"feeders":"F0582,F0584,F0586,F0588,F0590,F0592,F0594,F0596,F0598,F0600,F0602,F0604,F0608,F3126,F3128,F3130,F3182,F3190,F3194,F3196,F3198","SS_HC":9067,"SS_Q":113,"SS_QC":2,"SS_PR":"0.06","overlap":11,"loc_method":"convergence"}},{"type":"Feature","geometry":{"type":"Point","coordinates":[-87.88295,41.7396]},"properties":{"SS_N":"S0629","n_feeders":12,"feeders":"F3232,F3234,F3236,F3238,F3240,F3242,F3244,F3246,F3248,F3250,F5598,F5599","SS_HC":6491,"SS_Q":33,"SS_QC":1,"SS_PR":"0.04","overlap":10,"loc_method":"convergence"}},{"type":"Feature","geometry":{"type":"Point","coordinates":[-87.77663,41.77127]},"properties":{"SS_N":"S0608","n_feeders":17,"feeders":"F2890,F2892,F2894,F2896,F2898,F2900,F2902,F2904,F2906,F2908,F2910,F2912,F2914,F2916,F2918,F2920,F2922","SS_HC":8267,"SS_Q":8728,"SS_QC":8,"SS_PR":"0.24","overlap":14,"loc_method":"convergence"}},{"type":"Feature","geometry":{"type":"Point","coordinates":[-87.54822,41.71572]},"properties":{"SS_N":"S0673","n_feeders":96,"feeders":"F0055,F0091,F0093,F0165,F0167,F0309,F0311,F0313,F0315,F0317,F0319,F0380,F0382,F0384,F0386,F0388,F0390,F0392,F0599,F0601,F0603,F0605,F0607,F0609,F0611,F0613,F0615,F0617,F0619,F0621,F1179,F1181,F1183,F1185,F1187,F1189,F1191,F1193,F1195,F1197,F1199,F1201,F1203,F1205,F1207,F1209,F1211,F1213,F1215,F1217,F1219,F1221,F1223,F1225,F1437,F1485,F1583,F1775,F1777,F1779","SS_HC":8369,"SS_Q":2932,"SS_QC":12,"SS_PR":"0.07","overlap":42,"loc_method":"convergence"}},{"type":"Feature","geometry":{"type":"Point","coordinates":[-88.05752,42.11937]},"properties":{"SS_N":"S0639","n_feeders":46,"feeders":"F1650,F1652,F1654,F1656,F2783,F3278,F3280,F3282,F3284,F3286,F3288,F3290,F3292,F3294,F3296,F3298,F3300,F3302,F3304,F3306,F3308,F3310,F3312,F3314,F3316,F3318,F3320,F3322,F3324,F3326,F3328,F3330,F3332,F3334,F3336,F3427,F3458,F3460,F3528,F3530,F3730,F3732,F4044,F4046,F4048,F4114","SS_HC":13937,"SS_Q":2303,"SS_QC":7,"SS_PR":"0.10","overlap":28,"loc_method":"convergence"}},{"type":"Feature","geometry":{"type":"Point","coordinates":[-88.00356,42.05135]},"properties":{"SS_N":"S0527","n_feeders":26,"feeders":"F3338,F3340,F3342,F3344,F3346,F3348,F3350,F3352,F3354,F3356,F3358,F3360,F3362,F3364,F3366,F3368,F3370,F3372,F3374,F3376,F3378,F3380,F3382,F3384,F3386,F3388","SS_HC":9705,"SS_Q":4352,"SS_QC":4,"SS_PR":"0.06","overlap":21,"loc_method":"convergence"}},{"type":"Feature","geometry":{"type":"Point","coordinates":[-87.97862,41.99604]},"properties":{"SS_N":"S0528","n_feeders":39,"feeders":"F1894,F1896,F1898,F1900,F1902,F1904,F1906,F1908,F1910,F3390,F3392,F3394,F3396,F3398,F3400,F3402,F3404,F3406,F3408,F3410,F3412,F3414,F3416,F3418,F3420,F3422,F3424,F3426,F3428,F3430,F3432,F3434,F3436,F3438,F3440,F3442,F3444,F3446,F3448","SS_HC":14361,"SS_Q":19358,"SS_QC":21,"SS_PR":"0.16","overlap":31,"loc_method":"convergence"}},{"type":"Feature","geometry":{"type":"Point","coordinates":[-88.14355,42.06456]},"properties":{"SS_N":"S0531","n_feeders":29,"feeders":"F3466,F3468,F3470,F3472,F3474,F3476,F3478,F3480,F3482,F3484,F3486,F3488,F3490,F3492,F3494,F3496,F3498,F3500,F3502,F3504,F3506,F3508,F3510,F3512,F3514,F3516,F3518,F3520,F3522","SS_HC":11823,"SS_Q":6734,"SS_QC":9,"SS_PR":"0.15","overlap":25,"loc_method":"convergence"}},{"type":"Feature","geometry":{"type":"Point","coordinates":[-88.34299,42.41343]},"properties":{"SS_N":"S0188","n_feeders":2,"feeders":"F3524,F3526","SS_HC":330,"SS_Q":0,"SS_QC":0,"SS_PR":"0.03","overlap":2,"loc_method":"convergence"}},{"type":"Feature","geometry":{"type":"Point","coordinates":[-88.30171,42.25428]},"properties":{"SS_N":"S0729","n_feeders":30,"feeders":"F2120,F2122,F2124,F2126,F2130,F3532,F3534,F3636,F3638,F3640,F3706,F3734,F4066,F4068,F4070,F4072,F4074,F4076,F4078,F4080,F4082,F4084,F4086,F4088,F4090,F4092,F4094,F4096,F4098,F4100","SS_HC":18495,"SS_Q":74100,"SS_QC":29,"SS_PR":"0.61","overlap":19,"loc_method":"convergence"}},{"type":"Feature","geometry":{"type":"Point","coordinates":[-88.06385,42.02796]},"properties":{"SS_N":"S0535","n_feeders":15,"feeders":"F3536,F3538,F3540,F3542,F3544,F3548,F3550,F3552,F3554,F3556,F3558,F3560,F3562,F3566,F3568","SS_HC":5203,"SS_Q":536,"SS_QC":2,"SS_PR":"0.08","overlap":15,"loc_method":"convergence"}},{"type":"Feature","geometry":{"type":"Point","coordinates":[-88.24756,42.43921]},"properties":{"SS_N":"S0191","n_feeders":3,"feeders":"F3546,F3564,F3570","SS_HC":0,"SS_Q":0,"SS_QC":0,"SS_PR":"0.51","overlap":2,"loc_method":"convergence"}},{"type":"Feature","geometry":{"type":"Point","coordinates":[-88.42067,42.19713]},"properties":{"SS_N":"S0536","n_feeders":11,"feeders":"F3572,F3574,F3576,F3578,F3580,F3582,F3584,F3586,F3588,F3590,F5790","SS_HC":2172,"SS_Q":18917,"SS_QC":9,"SS_PR":"0.74","overlap":10,"loc_method":"convergence"}},{"type":"Feature","geometry":{"type":"Point","coordinates":[-88.23335,42.20969]},"properties":{"SS_N":"S0194","n_feeders":2,"feeders":"F3600,F3602","SS_HC":757,"SS_Q":0,"SS_QC":0,"SS_PR":"0.03","overlap":1,"loc_method":"convergence"}},{"type":"Feature","geometry":{"type":"Point","coordinates":[-87.97227,42.02112]},"properties":{"SS_N":"S0538","n_feeders":11,"feeders":"F3604,F3606,F3608,F3610,F3612,F3614,F3616,F3618,F3620,F3622,F3624","SS_HC":5772,"SS_Q":6035,"SS_QC":7,"SS_PR":"0.18","overlap":9,"loc_method":"convergence"}},{"type":"Feature","geometry":{"type":"Point","coordinates":[-88.398,42.19232]},"properties":{"SS_N":"S0195","n_feeders":3,"feeders":"F3626,F3628,F3630","SS_HC":363,"SS_Q":0,"SS_QC":0,"SS_PR":"0.05","overlap":2,"loc_method":"convergence"}},{"type":"Feature","geometry":{"type":"Point","coordinates":[-88.24648,42.40649]},"properties":{"SS_N":"S0198","n_feeders":3,"feeders":"F3642,F3644,F3646","SS_HC":474,"SS_Q":0,"SS_QC":0,"SS_PR":"0.04","overlap":3,"loc_method":"convergence"}},{"type":"Feature","geometry":{"type":"Point","coordinates":[-88.14274,42.15631]},"properties":{"SS_N":"S0541","n_feeders":14,"feeders":"F3648,F3650,F3652,F3654,F3656,F3658,F3660,F3662,F3664,F3666,F3668,F3670,F3672,F3674","SS_HC":3783,"SS_Q":8301,"SS_QC":9,"SS_PR":"0.20","overlap":11,"loc_method":"convergence"}},{"type":"Feature","geometry":{"type":"Point","coordinates":[-88.21224,42.06785]},"properties":{"SS_N":"S0543","n_feeders":13,"feeders":"F3676,F3678,F3680,F3682,F3684,F3686,F3688,F3690,F3692,F3694,F3696,F3698,F3700","SS_HC":0,"SS_Q":600,"SS_QC":4,"SS_PR":"0.05","overlap":13,"loc_method":"convergence"}},{"type":"Feature","geometry":{"type":"Point","coordinates":[-88.43156,42.16446]},"properties":{"SS_N":"S0199","n_feeders":1,"feeders":"F3704","SS_HC":0,"SS_Q":0,"SS_QC":0,"SS_PR":"0.28","overlap":1,"loc_method":"single-feeder (approx)"}},{"type":"Feature","geometry":{"type":"Point","coordinates":[-88.23514,42.20357]},"properties":{"SS_N":"S0545","n_feeders":8,"feeders":"F3714,F3716,F3718,F3720,F3722,F3724,F3726,F3728","SS_HC":2682,"SS_Q":1020,"SS_QC":4,"SS_PR":"0.06","overlap":7,"loc_method":"convergence"}},{"type":"Feature","geometry":{"type":"Point","coordinates":[-88.07307,42.21191]},"properties":{"SS_N":"S0546","n_feeders":19,"feeders":"F3736,F3738,F3740,F3742,F3744,F3746,F3748,F3750,F3752,F3754,F3756,F3758,F3760,F3762,F3764,F3766,F3768,F3770,F5746","SS_HC":6092,"SS_Q":6202,"SS_QC":8,"SS_PR":"0.22","overlap":15,"loc_method":"convergence"}},{"type":"Feature","geometry":{"type":"Point","coordinates":[-88.25698,42.17629]},"properties":{"SS_N":"S0547","n_feeders":2,"feeders":"F3772,F3774","SS_HC":859,"SS_Q":4168,"SS_QC":1,"SS_PR":"0.07","overlap":2,"loc_method":"convergence"}},{"type":"Feature","geometry":{"type":"Point","coordinates":[-88.44701,42.29793]},"properties":{"SS_N":"S0674","n_feeders":17,"feeders":"F3776,F3778,F3780,F3782,F3784,F3786,F3788,F3790,F3792,F3794,F3796,F3798,F3800,F3802,F3804,F3806,F3808","SS_HC":627,"SS_Q":63393,"SS_QC":23,"SS_PR":"0.81","overlap":14,"loc_method":"convergence"}},{"type":"Feature","geometry":{"type":"Point","coordinates":[-87.96224,42.0376]},"properties":{"SS_N":"S0675","n_feeders":37,"feeders":"F1834,F1836,F1838,F1840,F1842,F1844,F1846,F3810,F3812,F3814,F3816,F3818,F3820,F3822,F3824,F3826,F3828,F3830,F3832,F3834,F3836,F3838,F3840,F3842,F3844,F3846,F3848,F3850,F3852,F3854,F3856,F3858,F3860,F3862,F3864,F3866,F3868","SS_HC":17386,"SS_Q":11451,"SS_QC":9,"SS_PR":"0.05","overlap":34,"loc_method":"convergence"}},{"type":"Feature","geometry":{"type":"Point","coordinates":[-87.73662,41.55654]},"properties":{"SS_N":"S0576","n_feeders":16,"feeders":"F2744,F2835,F2929,F2931,F3119,F3121,F3123,F3125,F3497,F3499,F3501,F3503,F3505,F3507,F3509,F3511","SS_HC":4574,"SS_Q":18263,"SS_QC":15,"SS_PR":"0.28","overlap":13,"loc_method":"convergence"}},{"type":"Feature","geometry":{"type":"Point","coordinates":[-87.60546,41.52385]},"properties":{"SS_N":"S0728","n_feeders":36,"feeders":"F1554,F2102,F2104,F2106,F2110,F2112,F2114,F2116,F2785,F2831,F2839,F2845,F2921,F2933,F2947,F2949,F2951,F3101,F3105,F3191,F3459,F3461,F3463,F3467,F3469,F3495,F3515,F3533,F3567,F3569,F3581,F3583,F3585,F3643,F5609,F5610","SS_HC":23366,"SS_Q":63249,"SS_QC":21,"SS_PR":"0.87","overlap":6,"loc_method":"convergence"}},{"type":"Feature","geometry":{"type":"Point","coordinates":[-87.70873,41.49184]},"properties":{"SS_N":"S0659","n_feeders":33,"feeders":"F1780,F2108,F2763,F2787,F2833,F2837,F2925,F2927,F3099,F3103,F3107,F3109,F3111,F3113,F3115,F3117,F3127,F3159,F3475,F3477,F3479,F3481,F3483,F3485,F3487,F3489,F3491,F3493,F3513,F3579,F5641,F5643,F5644","SS_HC":1739,"SS_Q":62642,"SS_QC":27,"SS_PR":"1.22","overlap":18,"loc_method":"convergence"}},{"type":"Feature","geometry":{"type":"Point","coordinates":[-87.56815,41.56897]},"properties":{"SS_N":"S0582","n_feeders":10,"feeders":"F2789,F2935,F3129,F3131,F3133,F3517,F3519,F3521,F3523,F3525","SS_HC":3289,"SS_Q":6375,"SS_QC":6,"SS_PR":"0.28","overlap":6,"loc_method":"convergence"}},{"type":"Feature","geometry":{"type":"Point","coordinates":[-87.5545,41.58837]},"properties":{"SS_N":"S0583","n_feeders":5,"feeders":"F2937,F3135,F3527,F3529,F3531","SS_HC":2438,"SS_Q":30,"SS_QC":1,"SS_PR":"0.06","overlap":4,"loc_method":"convergence"}},{"type":"Feature","geometry":{"type":"Point","coordinates":[-87.62376,41.53544]},"properties":{"SS_N":"S0585","n_feeders":14,"feeders":"F2765,F2939,F2941,F3137,F3139,F3141,F3143,F3535,F3537,F3539,F3541,F3543,F3545,F3547","SS_HC":4751,"SS_Q":9137,"SS_QC":6,"SS_PR":"0.39","overlap":11,"loc_method":"convergence"}},{"type":"Feature","geometry":{"type":"Point","coordinates":[-87.74189,41.43376]},"properties":{"SS_N":"S0586","n_feeders":13,"feeders":"F2791,F2841,F2943,F3145,F3147,F3149,F3549,F3551,F3553,F3555,F3557,F5518,F5731","SS_HC":0,"SS_Q":65561,"SS_QC":22,"SS_PR":"1.04","overlap":9,"loc_method":"convergence"}},{"type":"Feature","geometry":{"type":"Point","coordinates":[-87.6702,41.48533]},"properties":{"SS_N":"S0589","n_feeders":8,"feeders":"F2843,F2945,F3151,F3153,F3559,F3561,F3563,F3565","SS_HC":2649,"SS_Q":5270,"SS_QC":2,"SS_PR":"0.28","overlap":6,"loc_method":"convergence"}},{"type":"Feature","geometry":{"type":"Point","coordinates":[-87.66715,41.63647]},"properties":{"SS_N":"S0730","n_feeders":52,"feeders":"F2138,F2140,F2142,F2144,F2146,F2753,F2773,F2793,F2853,F2857,F2871,F2923,F2955,F2965,F2975,F2979,F3003,F3007,F3155,F3161,F3163,F3171,F3189,F3217,F3265,F3267,F3269,F3271,F3275,F3471,F3473,F3571,F3587,F3601,F3637,F3639,F3641,F3645,F3675,F3677,F3679,F3693,F3695,F3697,F3789,F3791,F3793,F3795,F3797,F3801,F3803,F3809","SS_HC":81105,"SS_Q":9533,"SS_QC":8,"SS_PR":"0.16","overlap":11,"loc_method":"convergence"}},{"type":"Feature","geometry":{"type":"Point","coordinates":[-87.60563,41.48734]},"properties":{"SS_N":"S0687","n_feeders":6,"feeders":"F3157,F3573,F3575,F3577,F5607,F5608","SS_HC":225,"SS_Q":42616,"SS_QC":11,"SS_PR":"1.33","overlap":6,"loc_method":"convergence"}},{"type":"Feature","geometry":{"type":"Point","coordinates":[-87.81168,41.70444]},"properties":{"SS_N":"S0571","n_feeders":11,"feeders":"F2847,F2953,F3165,F3167,F3169,F3589,F3591,F3593,F3595,F3597,F3599","SS_HC":5627,"SS_Q":2596,"SS_QC":7,"SS_PR":"0.13","overlap":8,"loc_method":"convergence"}},{"type":"Feature","geometry":{"type":"Point","coordinates":[-88.05508,42.06058]},"properties":{"SS_N":"S0549","n_feeders":30,"feeders":"F3870,F3872,F3874,F3876,F3878,F3880,F3882,F3884,F3886,F3888,F3890,F3892,F3894,F3896,F3898,F3900,F3902,F3904,F3906,F3908,F3910,F3912,F3914,F3916,F3918,F3920,F3922,F3924,F3926,F3928","SS_HC":14455,"SS_Q":2398,"SS_QC":8,"SS_PR":"0.07","overlap":22,"loc_method":"convergence"}},{"type":"Feature","geometry":{"type":"Point","coordinates":[-88.35592,42.15506]},"properties":{"SS_N":"S0551","n_feeders":14,"feeders":"F3930,F3932,F3934,F3936,F3938,F3940,F3942,F3944,F3946,F3948,F3950,F3952,F3954,F3956","SS_HC":5619,"SS_Q":1765,"SS_QC":7,"SS_PR":"0.15","overlap":13,"loc_method":"convergence"}},{"type":"Feature","geometry":{"type":"Point","coordinates":[-88.24088,42.0046]},"properties":{"SS_N":"S0733","n_feeders":29,"feeders":"F0176,F0178,F0180,F0182,F0184,F0186,F1503,F1621,F1631,F1827,F1839,F1847,F2188,F2190,F2192,F2194,F2196,F2198,F2213,F2327,F2329,F2339,F2341,F2343,F3958,F5679,F5680,F5681,F5682","SS_HC":41544,"SS_Q":20913,"SS_QC":11,"SS_PR":"0.27","overlap":14,"loc_method":"convergence"}},{"type":"Feature","geometry":{"type":"Point","coordinates":[-88.23774,42.10249]},"properties":{"SS_N":"S0552","n_feeders":12,"feeders":"F3960,F3962,F3964,F3970,F3972,F3974,F3976,F3982,F5566,F5602,F5604,F5605","SS_HC":5591,"SS_Q":63,"SS_QC":1,"SS_PR":"0.07","overlap":12,"loc_method":"convergence"}},{"type":"Feature","geometry":{"type":"Point","coordinates":[-87.9842,42.11808]},"properties":{"SS_N":"S0553","n_feeders":30,"feeders":"F3984,F3986,F3988,F3990,F3992,F3994,F3996,F3998,F4000,F4002,F4004,F4006,F4008,F4010,F4012,F4014,F4016,F4018,F4020,F4022,F4024,F4026,F4028,F4030,F4032,F4034,F4036,F4038,F4040,F4042","SS_HC":11094,"SS_Q":1083,"SS_QC":9,"SS_PR":"0.06","overlap":22,"loc_method":"convergence"}},{"type":"Feature","geometry":{"type":"Point","coordinates":[-88.37492,42.241]},"properties":{"SS_N":"S0207","n_feeders":4,"feeders":"F4056,F4058,F4060,F4062","SS_HC":139,"SS_Q":0,"SS_QC":0,"SS_PR":"0.07","overlap":4,"loc_method":"convergence"}},{"type":"Feature","geometry":{"type":"Point","coordinates":[-88.20792,42.19349]},"properties":{"SS_N":"S0208","n_feeders":1,"feeders":"F4064","SS_HC":95,"SS_Q":0,"SS_QC":0,"SS_PR":"0.01","overlap":1,"loc_method":"single-feeder (approx)"}},{"type":"Feature","geometry":{"type":"Point","coordinates":[-88.32079,42.22105]},"properties":{"SS_N":"S0209","n_feeders":3,"feeders":"F4102,F4104,F4106","SS_HC":0,"SS_Q":0,"SS_QC":0,"SS_PR":"0.62","overlap":2,"loc_method":"convergence"}},{"type":"Feature","geometry":{"type":"Point","coordinates":[-88.34784,42.36355]},"properties":{"SS_N":"S0210","n_feeders":1,"feeders":"F4110","SS_HC":0,"SS_Q":0,"SS_QC":0,"SS_PR":"0.06","overlap":1,"loc_method":"single-feeder (approx)"}},{"type":"Feature","geometry":{"type":"Point","coordinates":[-87.99433,41.97885]},"properties":{"SS_N":"S0638","n_feeders":40,"feeders":"F1439,F1489,F1491,F1515,F1589,F1591,F1593,F1791,F1793,F1795,F1797,F1799,F2193,F2195,F2197,F2199,F2201,F2203,F2205,F2207,F2209,F2211,F2407,F2415,F3429,F4112,F5515,F5627,F5628,F5629,F5630,F5631,F5632,F5633,F5634,F5635,F5636,F5637,F5638,F5639","SS_HC":204638,"SS_Q":8380,"SS_QC":7,"SS_PR":"0.04","overlap":28,"loc_method":"convergence"}},{"type":"Feature","geometry":{"type":"Point","coordinates":[-88.30739,42.4506]},"properties":{"SS_N":"S0213","n_feeders":2,"feeders":"F3085,F3431","SS_HC":575,"SS_Q":0,"SS_QC":0,"SS_PR":"0.04","overlap":1,"loc_method":"convergence"}},{"type":"Feature","geometry":{"type":"Point","coordinates":[-88.27961,42.33549]},"properties":{"SS_N":"S0690","n_feeders":20,"feeders":"F1886,F1888,F1890,F1892,F2751,F2827,F2915,F2917,F3087,F3089,F3091,F3093,F3435,F3437,F3439,F3441,F3443,F3445,F3447,F5656","SS_HC":3567,"SS_Q":96938,"SS_QC":30,"SS_PR":"0.68","overlap":16,"loc_method":"convergence"}},{"type":"Feature","geometry":{"type":"Point","coordinates":[-87.81855,41.60122]},"properties":{"SS_N":"S0573","n_feeders":29,"feeders":"F2767,F2795,F2849,F2851,F2957,F2959,F2961,F2963,F3173,F3175,F3177,F3179,F3181,F3183,F3185,F3605,F3607,F3609,F3611,F3613,F3615,F3617,F3619,F3621,F3623,F3625,F3627,F3629,F3631","SS_HC":13500,"SS_Q":2179,"SS_QC":9,"SS_PR":"0.09","overlap":23,"loc_method":"convergence"}},{"type":"Feature","geometry":{"type":"Point","coordinates":[-87.74177,41.68862]},"properties":{"SS_N":"S0718","n_feeders":43,"feeders":"F2026,F2028,F2030,F2747,F2755,F2801,F2861,F2967,F2981,F2983,F2985,F2991,F2999,F3187,F3201,F3219,F3221,F3223,F3225,F3227,F3229,F3243,F3253,F3277,F3633,F3635,F3649,F3661,F3663,F3699,F3701,F3703,F3705,F3707,F3709,F3711,F3713,F3715,F3717,F3719,F3721,F3745,F3767","SS_HC":27700,"SS_Q":6334,"SS_QC":11,"SS_PR":"0.32","overlap":24,"loc_method":"convergence"}},{"type":"Feature","geometry":{"type":"Point","coordinates":[-87.81033,41.65737]},"properties":{"SS_N":"S0579","n_feeders":11,"feeders":"F2797,F2855,F2969,F3195,F3197,F3199,F3651,F3653,F3655,F3657,F3659","SS_HC":7161,"SS_Q":82,"SS_QC":2,"SS_PR":"0.04","overlap":8,"loc_method":"convergence"}},{"type":"Feature","geometry":{"type":"Point","coordinates":[-87.64267,41.59705]},"properties":{"SS_N":"S0580","n_feeders":12,"feeders":"F2769,F2971,F2973,F3203,F3205,F3207,F3665,F3667,F3669,F3671,F3673,F5611","SS_HC":4855,"SS_Q":7657,"SS_QC":6,"SS_PR":"0.26","overlap":9,"loc_method":"convergence"}},{"type":"Feature","geometry":{"type":"Point","coordinates":[-87.54863,41.60195]},"properties":{"SS_N":"S0590","n_feeders":12,"feeders":"F2799,F2859,F2977,F3211,F3213,F3215,F3681,F3683,F3685,F3687,F3689,F3691","SS_HC":2772,"SS_Q":1045,"SS_QC":3,"SS_PR":"0.16","overlap":10,"loc_method":"convergence"}},{"type":"Feature","geometry":{"type":"Point","coordinates":[-87.73215,41.63987]},"properties":{"SS_N":"S0591","n_feeders":22,"feeders":"F2771,F2863,F2865,F2987,F2989,F3231,F3233,F3235,F3237,F3239,F3241,F3723,F3725,F3727,F3729,F3731,F3733,F3735,F3737,F3739,F3741,F3743","SS_HC":11914,"SS_Q":10563,"SS_QC":11,"SS_PR":"0.15","overlap":21,"loc_method":"convergence"}},{"type":"Feature","geometry":{"type":"Point","coordinates":[-87.5949,41.62211]},"properties":{"SS_N":"S0592","n_feeders":15,"feeders":"F2803,F2867,F2993,F2995,F3245,F3247,F3249,F3747,F3749,F3751,F3753,F3755,F3757,F3759,F3761","SS_HC":4385,"SS_Q":884,"SS_QC":5,"SS_PR":"0.10","overlap":14,"loc_method":"convergence"}},{"type":"Feature","geometry":{"type":"Point","coordinates":[-87.70713,41.72728]},"properties":{"SS_N":"S0593","n_feeders":11,"feeders":"F2869,F2997,F3255,F3257,F3259,F3769,F3771,F3773,F3775,F3777,F3779","SS_HC":6772,"SS_Q":649,"SS_QC":4,"SS_PR":"0.06","overlap":9,"loc_method":"convergence"}},{"type":"Feature","geometry":{"type":"Point","coordinates":[-87.85228,41.64273]},"properties":{"SS_N":"S0594","n_feeders":8,"feeders":"F2805,F3001,F3261,F3263,F3781,F3783,F3785,F3787","SS_HC":5733,"SS_Q":0,"SS_QC":0,"SS_PR":"0.05","overlap":7,"loc_method":"convergence"}},{"type":"Feature","geometry":{"type":"Point","coordinates":[-89.61172,41.83765]},"properties":{"SS_N":"S0255","n_feeders":2,"feeders":"F3285,F3829","SS_HC":0,"SS_Q":0,"SS_QC":0,"SS_PR":"0.09","overlap":2,"loc_method":"convergence"}},{"type":"Feature","geometry":{"type":"Point","coordinates":[-89.11859,41.55368]},"properties":{"SS_N":"S0668","n_feeders":15,"feeders":"F1822,F2877,F2883,F3013,F3287,F3305,F3311,F3317,F3831,F3833,F3835,F3869,F3871,F3883,F5535","SS_HC":922,"SS_Q":7160,"SS_QC":7,"SS_PR":"0.53","overlap":4,"loc_method":"convergence"}},{"type":"Feature","geometry":{"type":"Point","coordinates":[-88.61264,41.64666]},"properties":{"SS_N":"S0256","n_feeders":3,"feeders":"F3289,F3837,F3839","SS_HC":0,"SS_Q":0,"SS_QC":0,"SS_PR":"0.13","overlap":2,"loc_method":"convergence"}},{"type":"Feature","geometry":{"type":"Point","coordinates":[-89.49878,41.84065]},"properties":{"SS_N":"S0556","n_feeders":7,"feeders":"F2809,F3015,F3291,F3293,F3841,F3843,F3845","SS_HC":172,"SS_Q":28822,"SS_QC":11,"SS_PR":"1.40","overlap":6,"loc_method":"convergence"}},{"type":"Feature","geometry":{"type":"Point","coordinates":[-89.96907,41.80979]},"properties":{"SS_N":"S0662","n_feeders":11,"feeders":"F1806,F1808,F2775,F2879,F3019,F3021,F3301,F3851,F3857,F3861,F3863","SS_HC":335,"SS_Q":11424,"SS_QC":5,"SS_PR":"1.25","overlap":4,"loc_method":"convergence"}},{"type":"Feature","geometry":{"type":"Point","coordinates":[-89.69843,41.80951]},"properties":{"SS_N":"S0259","n_feeders":3,"feeders":"F3297,F3853,F3855","SS_HC":552,"SS_Q":0,"SS_QC":0,"SS_PR":"0.06","overlap":2,"loc_method":"convergence"}},{"type":"Feature","geometry":{"type":"Point","coordinates":[-89.846,41.56902]},"properties":{"SS_N":"S0657","n_feeders":10,"feeders":"F1772,F1774,F2811,F2881,F3023,F3303,F3867,F3873,F3877,F3915","SS_HC":0,"SS_Q":51963,"SS_QC":15,"SS_PR":"1.68","overlap":2,"loc_method":"convergence"}},{"type":"Feature","geometry":{"type":"Point","coordinates":[-89.39113,41.72212]},"properties":{"SS_N":"S0269","n_feeders":1,"feeders":"F3875","SS_HC":0,"SS_Q":0,"SS_QC":0,"SS_PR":"0.11","overlap":1,"loc_method":"single-feeder (approx)"}},{"type":"Feature","geometry":{"type":"Point","coordinates":[-88.63279,41.76794]},"properties":{"SS_N":"S0271","n_feeders":2,"feeders":"F3309,F3879","SS_HC":0,"SS_Q":0,"SS_QC":0,"SS_PR":"0.13","overlap":1,"loc_method":"convergence"}},{"type":"Feature","geometry":{"type":"Point","coordinates":[-89.2196,41.86397]},"properties":{"SS_N":"S0272","n_feeders":2,"feeders":"F3025,F3881","SS_HC":107,"SS_Q":0,"SS_QC":0,"SS_PR":"0.11","overlap":1,"loc_method":"convergence"}},{"type":"Feature","geometry":{"type":"Point","coordinates":[-88.65082,41.61887]},"properties":{"SS_N":"S0275","n_feeders":2,"feeders":"F3313,F3885","SS_HC":393,"SS_Q":0,"SS_QC":0,"SS_PR":"0.02","overlap":1,"loc_method":"convergence"}},{"type":"Feature","geometry":{"type":"Point","coordinates":[-88.77318,41.74166]},"properties":{"SS_N":"S0276","n_feeders":1,"feeders":"F3887","SS_HC":3,"SS_Q":0,"SS_QC":0,"SS_PR":"0.07","overlap":1,"loc_method":"single-feeder (approx)"}},{"type":"Feature","geometry":{"type":"Point","coordinates":[-88.77386,41.78504]},"properties":{"SS_N":"S0277","n_feeders":1,"feeders":"F3027","SS_HC":0,"SS_Q":0,"SS_QC":0,"SS_PR":"0.16","overlap":1,"loc_method":"single-feeder (approx)"}},{"type":"Feature","geometry":{"type":"Point","coordinates":[-88.8726,41.76145]},"properties":{"SS_N":"S0278","n_feeders":2,"feeders":"F3315,F3891","SS_HC":117,"SS_Q":0,"SS_QC":0,"SS_PR":"0.13","overlap":2,"loc_method":"convergence"}},{"type":"Feature","geometry":{"type":"Point","coordinates":[-88.92589,41.80068]},"properties":{"SS_N":"S0279","n_feeders":1,"feeders":"F3893","SS_HC":0,"SS_Q":0,"SS_QC":0,"SS_PR":"0.74","overlap":1,"loc_method":"single-feeder (approx)"}},{"type":"Feature","geometry":{"type":"Point","coordinates":[-88.58499,41.65021]},"properties":{"SS_N":"S0281","n_feeders":2,"feeders":"F3029,F3895","SS_HC":0,"SS_Q":0,"SS_QC":0,"SS_PR":"0.26","overlap":1,"loc_method":"convergence"}},{"type":"Feature","geometry":{"type":"Point","coordinates":[-89.04867,41.17551]},"properties":{"SS_N":"S0689","n_feeders":5,"feeders":"F1411,F1755,F1874,F2117,F2139","SS_HC":175,"SS_Q":50192,"SS_QC":15,"SS_PR":"0.84","overlap":2,"loc_method":"convergence"}},{"type":"Feature","geometry":{"type":"Point","coordinates":[-87.96406,42.02524]},"properties":{"SS_N":"S0752","n_feeders":9,"feeders":"F5650,F5651,F5652,F5653,F5654,F5655,F5864,F5866,F5869","SS_HC":113000,"SS_Q":6500,"SS_QC":1,"SS_PR":"0.11","overlap":7,"loc_method":"convergence"}},{"type":"Feature","geometry":{"type":"Point","coordinates":[-88.06499,41.6358]},"properties":{"SS_N":"S0524","n_feeders":15,"feeders":"F1442,F1448,F1474,F1476,F1876,F1878,F1882,F1884,F3051,F3363,F3379,F3409,F3985,F4019,F4077","SS_HC":42962,"SS_Q":13949,"SS_QC":8,"SS_PR":"0.89","overlap":4,"loc_method":"convergence"}},{"type":"Feature","geometry":{"type":"Point","coordinates":[-88.62428,40.89308]},"properties":{"SS_N":"Networked*","n_feeders":59,"feeders":"F0001,F0002,F0007,F0008,F0010,F0011,F0012,F0015,F0019,F0020,F1646,F1658,F1660,F1662,F1664,F1676,F1684,F1698,F1720,F1722,F1724,F1732,F1754,F1764,F1818,F1832,F1880,F1920,F1922,F1926,F1928,F1958,F1960,F1966,F1968,F1988,F2012,F2014,F2038,F2078,F2094,F2100,F2118,F2132,F2134,F2136,F2148,F2150,F2154,F2200,F2202,F2208,F2214,F2216,F2246,F2256,F2262,F5522,F5642","SS_HC":0,"SS_Q":0,"SS_QC":0,"SS_PR":"Networked*","overlap":5,"loc_method":"convergence"}},{"type":"Feature","geometry":{"type":"Point","coordinates":[-88.37258,41.41256]},"properties":{"SS_N":"S0575","n_feeders":5,"feeders":"F3053,F3381,F3991,F4021,F5512","SS_HC":10,"SS_Q":54220,"SS_QC":16,"SS_PR":"0.48","overlap":2,"loc_method":"convergence"}},{"type":"Feature","geometry":{"type":"Point","coordinates":[-88.30857,41.78447]},"properties":{"SS_N":"S0715","n_feeders":41,"feeders":"F0066,F0068,F1461,F1529,F1533,F1601,F1605,F1607,F1669,F1677,F1679,F1813,F1821,F1825,F1949,F1951,F1967,F1969,F1971,F2000,F2002,F2004,F2006,F2008,F2010,F2261,F2273,F2281,F2285,F2295,F2531,F2535,F2537,F2563,F2565,F2567,F2569,F2571,F2573,F2575,F2577","SS_HC":131069,"SS_Q":22152,"SS_QC":28,"SS_PR":"0.25","overlap":18,"loc_method":"convergence"}},{"type":"Feature","geometry":{"type":"Point","coordinates":[-88.53426,41.66432]},"properties":{"SS_N":"S0283","n_feeders":2,"feeders":"F3321,F3901","SS_HC":0,"SS_Q":0,"SS_QC":0,"SS_PR":"0.10","overlap":2,"loc_method":"convergence"}},{"type":"Feature","geometry":{"type":"Point","coordinates":[-88.50876,41.71028]},"properties":{"SS_N":"S0284","n_feeders":1,"feeders":"F3903","SS_HC":20,"SS_Q":0,"SS_QC":0,"SS_PR":"0.01","overlap":1,"loc_method":"single-feeder (approx)"}},{"type":"Feature","geometry":{"type":"Point","coordinates":[-89.26697,41.72482]},"properties":{"SS_N":"S0285","n_feeders":2,"feeders":"F3031,F3905","SS_HC":0,"SS_Q":0,"SS_QC":0,"SS_PR":"0.15","overlap":1,"loc_method":"convergence"}},{"type":"Feature","geometry":{"type":"Point","coordinates":[-89.29204,41.64562]},"properties":{"SS_N":"S0286","n_feeders":2,"feeders":"F3323,F3907","SS_HC":0,"SS_Q":0,"SS_QC":0,"SS_PR":"0.16","overlap":2,"loc_method":"convergence"}},{"type":"Feature","geometry":{"type":"Point","coordinates":[-89.65021,41.80843]},"properties":{"SS_N":"S0558","n_feeders":5,"feeders":"F2813,F3325,F3909,F3911,F5541","SS_HC":479,"SS_Q":37078,"SS_QC":12,"SS_PR":"1.47","overlap":5,"loc_method":"convergence"}},{"type":"Feature","geometry":{"type":"Point","coordinates":[-89.47351,41.82246]},"properties":{"SS_N":"S0287","n_feeders":1,"feeders":"F3033","SS_HC":0,"SS_Q":0,"SS_QC":0,"SS_PR":"0.53","overlap":1,"loc_method":"single-feeder (approx)"}},{"type":"Feature","geometry":{"type":"Point","coordinates":[-89.47917,41.84573]},"properties":{"SS_N":"S0288","n_feeders":2,"feeders":"F3327,F3913","SS_HC":737,"SS_Q":0,"SS_QC":0,"SS_PR":"0.02","overlap":2,"loc_method":"convergence"}},{"type":"Feature","geometry":{"type":"Point","coordinates":[-87.60682,41.80368]},"properties":{"SS_N":"S0685","n_feeders":43,"feeders":"F0037,F0095,F0169,F0171,F0173,F0321,F0323,F0325,F0327,F0329,F0625,F0627,F0629,F0631,F0633,F0635,F0637,F0639,F0641,F1227,F1229,F1235,F1237,F1239,F1245,F1247,F1249,F1251,F1253,F1255,F1257,F1259,F1261,F1263,F1265,F2889,F3037,F3333,F3335,F3925,F3927,F3929,F3931","SS_HC":26645,"SS_Q":8250,"SS_QC":2,"SS_PR":"0.06","overlap":37,"loc_method":"convergence"}},{"type":"Feature","geometry":{"type":"Point","coordinates":[-87.92326,41.49166]},"properties":{"SS_N":"S0568","n_feeders":16,"feeders":"F2815,F3039,F3041,F3337,F3339,F3341,F3933,F3935,F3937,F3939,F3941,F3943,F3945,F5612,F5613,F5827","SS_HC":4488,"SS_Q":35782,"SS_QC":10,"SS_PR":"0.51","overlap":16,"loc_method":"convergence"}},{"type":"Feature","geometry":{"type":"Point","coordinates":[-88.09477,41.63843]},"properties":{"SS_N":"S0570","n_feeders":12,"feeders":"F2759,F2891,F3043,F3343,F3345,F3347,F3947,F3949,F3951,F3953,F3955,F3957","SS_HC":3098,"SS_Q":6657,"SS_QC":6,"SS_PR":"0.41","overlap":10,"loc_method":"convergence"}},{"type":"Feature","geometry":{"type":"Point","coordinates":[-88.10995,41.49168]},"properties":{"SS_N":"S0569","n_feeders":37,"feeders":"F0004,F1394,F1396,F1444,F1446,F1468,F1470,F1472,F1478,F1480,F1482,F1634,F1638,F1640,F1642,F1644,F1648,F1789,F1828,F2237,F2893,F3045,F3351,F3361,F3367,F3399,F3411,F3961,F3963,F3983,F3993,F4083,F5616,F5619,F5626,F5800,F5828","SS_HC":34760,"SS_Q":104793,"SS_QC":29,"SS_PR":"0.93","overlap":5,"loc_method":"convergence"}},{"type":"Feature","geometry":{"type":"Point","coordinates":[-88.42901,41.35905]},"properties":{"SS_N":"S0731","n_feeders":11,"feeders":"F1398,F1434,F1577,F1579,F1773,F2135,F2143,F2152,F3349,F3365,F3989","SS_HC":4379,"SS_Q":15065,"SS_QC":5,"SS_PR":"1.93","overlap":2,"loc_method":"convergence"}},{"type":"Feature","geometry":{"type":"Point","coordinates":[-87.93631,41.62839]},"properties":{"SS_N":"S0572","n_feeders":17,"feeders":"F2817,F2895,F3047,F3049,F3353,F3355,F3357,F3359,F3965,F3967,F3969,F3971,F3973,F3975,F3977,F3979,F3981","SS_HC":11285,"SS_Q":5752,"SS_QC":8,"SS_PR":"0.09","overlap":16,"loc_method":"convergence"}},{"type":"Feature","geometry":{"type":"Point","coordinates":[-88.12097,41.40417]},"properties":{"SS_N":"S0296","n_feeders":1,"feeders":"F3987","SS_HC":285,"SS_Q":0,"SS_QC":0,"SS_PR":"0.00","overlap":1,"loc_method":"single-feeder (approx)"}},{"type":"Feature","geometry":{"type":"Point","coordinates":[-88.33849,41.43734]},"properties":{"SS_N":"S0297","n_feeders":1,"feeders":"F2779","SS_HC":660,"SS_Q":0,"SS_QC":0,"SS_PR":"0.00","overlap":1,"loc_method":"single-feeder (approx)"}},{"type":"Feature","geometry":{"type":"Point","coordinates":[-88.43339,41.80623]},"properties":{"SS_N":"S0621","n_feeders":14,"feeders":"F0098,F0100,F1471,F1499,F1719,F2016,F2049,F2051,F2053,F2729,F2731,F2733,F2735,F2737","SS_HC":260,"SS_Q":72565,"SS_QC":24,"SS_PR":"0.44","overlap":10,"loc_method":"convergence"}},{"type":"Feature","geometry":{"type":"Point","coordinates":[-88.32829,41.98475]},"properties":{"SS_N":"S0625","n_feeders":29,"feeders":"F0152,F0154,F0156,F0158,F0160,F0162,F0164,F0166,F0168,F0170,F0172,F1517,F1815,F1833,F1875,F1909,F2018,F2020,F2022,F2024,F2232,F2251,F2263,F2299,F2381,F2393,F2401,F2457,F5678","SS_HC":36721,"SS_Q":32814,"SS_QC":20,"SS_PR":"0.98","overlap":14,"loc_method":"convergence"}},{"type":"Feature","geometry":{"type":"Point","coordinates":[-88.84127,41.12344]},"properties":{"SS_N":"S0719","n_feeders":29,"feeders":"F1481,F1483,F1571,F1573,F1575,F1581,F1751,F1753,F1759,F1761,F1763,F1765,F1767,F2032,F2034,F2036,F2040,F2042,F2119,F2121,F2123,F2125,F2127,F2129,F2133,F2137,F2145,F2149,F2159","SS_HC":23028,"SS_Q":71232,"SS_QC":20,"SS_PR":"3.22","overlap":11,"loc_method":"convergence"}},{"type":"Feature","geometry":{"type":"Point","coordinates":[-87.85992,41.16452]},"properties":{"SS_N":"S0725","n_feeders":46,"feeders":"F1514,F1516,F1518,F1520,F1522,F1524,F1526,F1528,F1530,F1532,F1534,F1536,F1538,F1540,F1546,F1548,F1550,F1552,F1556,F1558,F1560,F1584,F1586,F1588,F1590,F1592,F1594,F1596,F1598,F1600,F1602,F1604,F1606,F1608,F1610,F1612,F1614,F1616,F1618,F1620,F2076,F2080,F2082,F2084,F2086,F2088","SS_HC":15217,"SS_Q":79039,"SS_QC":26,"SS_PR":"1.73","overlap":15,"loc_method":"convergence"}},{"type":"Feature","geometry":{"type":"Point","coordinates":[-88.28517,41.39547]},"properties":{"SS_N":"S0727","n_feeders":3,"feeders":"F2092,F2096,F2098","SS_HC":20,"SS_Q":31586,"SS_QC":13,"SS_PR":"0.00","overlap":2,"loc_method":"convergence"}},{"type":"Feature","geometry":{"type":"Point","coordinates":[-88.59858,40.84486]},"properties":{"SS_N":"S0734","n_feeders":10,"feeders":"F1392,F1435,F1757,F1771,F2141,F2155,F2157,F2204,F2206,F2210","SS_HC":1692,"SS_Q":80086,"SS_QC":25,"SS_PR":"1.04","overlap":4,"loc_method":"convergence"}},{"type":"Feature","geometry":{"type":"Point","coordinates":[-88.12223,41.63045]},"properties":{"SS_N":"S0598","n_feeders":10,"feeders":"F1484,F1486,F1488,F1490,F1492,F1494,F1496,F1498,F1500,F1502","SS_HC":2398,"SS_Q":7209,"SS_QC":5,"SS_PR":"0.35","overlap":9,"loc_method":"convergence"}},{"type":"Feature","geometry":{"type":"Point","coordinates":[-87.63951,41.74675]},"properties":{"SS_N":"S0651","n_feeders":19,"feeders":"F0087,F0157,F0293,F0295,F0569,F0571,F0573,F1119,F1121,F1123,F1125,F1127,F1129,F1131,F1504,F1506,F1508,F1510,F5713","SS_HC":7897,"SS_Q":660,"SS_QC":3,"SS_PR":"0.07","overlap":10,"loc_method":"convergence"}},{"type":"Feature","geometry":{"type":"Point","coordinates":[-87.97786,41.2037]},"properties":{"SS_N":"S0328","n_feeders":1,"feeders":"F1512","SS_HC":0,"SS_Q":0,"SS_QC":0,"SS_PR":"0.11","overlap":1,"loc_method":"single-feeder (approx)"}},{"type":"Feature","geometry":{"type":"Point","coordinates":[-88.00698,41.1179]},"properties":{"SS_N":"S0336","n_feeders":2,"feeders":"F1542,F1544","SS_HC":0,"SS_Q":0,"SS_QC":0,"SS_PR":"0.06","overlap":1,"loc_method":"convergence"}},{"type":"Feature","geometry":{"type":"Point","coordinates":[-87.87485,41.09195]},"properties":{"SS_N":"S0677","n_feeders":11,"feeders":"F1562,F1564,F1566,F1568,F1570,F1572,F1574,F1576,F1578,F1580,F1582","SS_HC":540,"SS_Q":20983,"SS_QC":8,"SS_PR":"0.97","overlap":10,"loc_method":"convergence"}},{"type":"Feature","geometry":{"type":"Point","coordinates":[-87.90867,41.2069]},"properties":{"SS_N":"S0739","n_feeders":2,"feeders":"F1622,F1624","SS_HC":0,"SS_Q":17899,"SS_QC":4,"SS_PR":"0.40","overlap":2,"loc_method":"convergence"}},{"type":"Feature","geometry":{"type":"Point","coordinates":[-87.73406,41.76189]},"properties":{"SS_N":"S0641","n_feeders":27,"feeders":"F0035,F0039,F0155,F0291,F0355,F0561,F0563,F0565,F0567,F0689,F0691,F0693,F1105,F1107,F1109,F1111,F1113,F1115,F1117,F1361,F1363,F1365,F1367,F1626,F1628,F1630,F1632","SS_HC":9994,"SS_Q":124,"SS_QC":4,"SS_PR":"0.06","overlap":14,"loc_method":"convergence"}},{"type":"Feature","geometry":{"type":"Point","coordinates":[-87.63789,41.89186]},"properties":{"SS_N":"S0722","n_feeders":39,"feeders":"F0031,F0121,F0123,F0225,F0227,F0431,F0433,F0435,F0437,F0841,F0843,F0847,F0849,F0851,F0855,F0857,F0859,F2404,F2406,F2408,F2410,F2412,F2414,F2416,F2418,F2420,F2422,F2424,F2426,F2428,F2430,F2432,F2434,F2436,F2438,F2440,F2442,F2444,F2446","SS_HC":18400,"SS_Q":0,"SS_QC":1,"SS_PR":"0.00","overlap":37,"loc_method":"convergence"}},{"type":"Feature","geometry":{"type":"Point","coordinates":[-87.63168,41.87367]},"properties":{"SS_N":"S0723","n_feeders":41,"feeders":"F0071,F0125,F0229,F0231,F0233,F0439,F0441,F0443,F0445,F0447,F0449,F0861,F0863,F0865,F0867,F0869,F0871,F0873,F0875,F0877,F0879,F2448,F2450,F2452,F2454,F2456,F2458,F2460,F2462,F2464,F2466,F2468,F2470,F2472,F2474,F2476,F2478,F2480,F2482,F2484,F2486","SS_HC":20265,"SS_Q":400,"SS_QC":2,"SS_PR":"0.01","overlap":35,"loc_method":"convergence"}},{"type":"Feature","geometry":{"type":"Point","coordinates":[-87.6206,41.8862]},"properties":{"SS_N":"S0633","n_feeders":40,"feeders":"F0025,F0075,F0131,F0133,F0241,F0243,F0245,F0247,F0249,F0465,F0467,F0469,F0471,F0473,F0475,F0479,F0481,F0911,F0913,F0915,F0917,F0919,F0921,F0923,F0925,F0927,F0929,F0931,F0933,F0935,F0937,F0939,F0941,F0943,F0945,F2488,F2490,F2492,F2494,F2496","SS_HC":23430,"SS_Q":0,"SS_QC":0,"SS_PR":"0.01","overlap":35,"loc_method":"convergence"}},{"type":"Feature","geometry":{"type":"Point","coordinates":[-87.63562,41.87915]},"properties":{"SS_N":"S0634","n_feeders":39,"feeders":"F0047,F0077,F0135,F0137,F0251,F0253,F0255,F0483,F0485,F0487,F0489,F0491,F0493,F0947,F0949,F0951,F0953,F0955,F0957,F0959,F0961,F0963,F0965,F0967,F0969,F2498,F2500,F2502,F2504,F2506,F2508,F2510,F2512,F2514,F2516,F2518,F2520,F2522,F2524","SS_HC":12045,"SS_Q":0,"SS_QC":0,"SS_PR":"0.00","overlap":35,"loc_method":"convergence"}},{"type":"Feature","geometry":{"type":"Point","coordinates":[-87.62924,41.88336]},"properties":{"SS_N":"S0740","n_feeders":31,"feeders":"F0085,F0153,F0287,F0289,F0553,F0555,F0557,F1089,F1091,F1093,F1095,F1097,F1099,F1101,F1103,F2526,F2528,F2530,F2532,F2534,F2536,F2538,F2540,F2542,F2544,F2546,F2548,F2550,F2552,F2554,F2556","SS_HC":16035,"SS_Q":0,"SS_QC":0,"SS_PR":"0.00","overlap":28,"loc_method":"convergence"}},{"type":"Feature","geometry":{"type":"Point","coordinates":[-87.65437,41.8522]},"properties":{"SS_N":"S0520","n_feeders":36,"feeders":"F1200,F1202,F1204,F1206,F1208,F1210,F1212,F1214,F1216,F1218,F1220,F1222,F1224,F1226,F1228,F1230,F1232,F1236,F1238,F1242,F1244,F1246,F1248,F1250,F1252,F1254,F1256,F2558,F2560,F2562,F2564,F2566,F2568,F2570,F2572,F2574","SS_HC":20133,"SS_Q":0,"SS_QC":0,"SS_PR":"0.06","overlap":20,"loc_method":"convergence"}},{"type":"Feature","geometry":{"type":"Point","coordinates":[-89.01865,42.26011]},"properties":{"SS_N":"S0678","n_feeders":16,"feeders":"F2588,F2590,F2592,F2594,F2596,F2598,F2600,F2602,F2604,F2606,F2608,F2610,F2612,F2614,F2616,F2618","SS_HC":5111,"SS_Q":15429,"SS_QC":11,"SS_PR":"0.33","overlap":13,"loc_method":"convergence"}},{"type":"Feature","geometry":{"type":"Point","coordinates":[-88.27122,41.45408]},"properties":{"SS_N":"S0301","n_feeders":2,"feeders":"F2897,F3995","SS_HC":1204,"SS_Q":0,"SS_QC":0,"SS_PR":"0.01","overlap":1,"loc_method":"convergence"}},{"type":"Feature","geometry":{"type":"Point","coordinates":[-88.47952,41.36249]},"properties":{"SS_N":"S0302","n_feeders":1,"feeders":"F3997","SS_HC":0,"SS_Q":0,"SS_QC":0,"SS_PR":"0.73","overlap":1,"loc_method":"single-feeder (approx)"}},{"type":"Feature","geometry":{"type":"Point","coordinates":[-88.23618,41.54263]},"properties":{"SS_N":"S0574","n_feeders":20,"feeders":"F2819,F2899,F3055,F3057,F3059,F3369,F3371,F3373,F3375,F3377,F3999,F4001,F4003,F4005,F4007,F4009,F4011,F4013,F4015,F4017","SS_HC":1374,"SS_Q":45582,"SS_QC":17,"SS_PR":"0.53","overlap":19,"loc_method":"convergence"}},{"type":"Feature","geometry":{"type":"Point","coordinates":[-88.1287,41.28009]},"properties":{"SS_N":"S0304","n_feeders":1,"feeders":"F2745","SS_HC":599,"SS_Q":0,"SS_QC":0,"SS_PR":"0.06","overlap":1,"loc_method":"single-feeder (approx)"}},{"type":"Feature","geometry":{"type":"Point","coordinates":[-88.42392,41.37416]},"properties":{"SS_N":"S0305","n_feeders":1,"feeders":"F4023","SS_HC":899,"SS_Q":0,"SS_QC":0,"SS_PR":"0.01","overlap":1,"loc_method":"single-feeder (approx)"}},{"type":"Feature","geometry":{"type":"Point","coordinates":[-88.13064,41.55167]},"properties":{"SS_N":"S0577","n_feeders":24,"feeders":"F2821,F2901,F2903,F3061,F3063,F3065,F3383,F3385,F3387,F3389,F3391,F3393,F4025,F4027,F4029,F4031,F4033,F4035,F4037,F4039,F4041,F4043,F4045,F5548","SS_HC":14225,"SS_Q":6025,"SS_QC":16,"SS_PR":"0.14","overlap":20,"loc_method":"convergence"}},{"type":"Feature","geometry":{"type":"Point","coordinates":[-88.12942,41.50687]},"properties":{"SS_N":"S0578","n_feeders":12,"feeders":"F2781,F3067,F3069,F3395,F3397,F4049,F4051,F4053,F4055,F4057,F5531,F5615","SS_HC":2827,"SS_Q":13480,"SS_QC":7,"SS_PR":"0.43","overlap":9,"loc_method":"convergence"}},{"type":"Feature","geometry":{"type":"Point","coordinates":[-87.8659,41.49209]},"properties":{"SS_N":"S0669","n_feeders":11,"feeders":"F2823,F2905,F3071,F3401,F3403,F4059,F4061,F4063,F4065,F4067,F4069","SS_HC":4009,"SS_Q":14255,"SS_QC":6,"SS_PR":"0.52","overlap":9,"loc_method":"convergence"}},{"type":"Feature","geometry":{"type":"Point","coordinates":[-88.25989,41.41878]},"properties":{"SS_N":"S0581","n_feeders":7,"feeders":"F3073,F3405,F3407,F4071,F4073,F4075,F5617","SS_HC":1241,"SS_Q":24382,"SS_QC":11,"SS_PR":"0.84","overlap":6,"loc_method":"convergence"}},{"type":"Feature","geometry":{"type":"Point","coordinates":[-88.1987,41.34156]},"properties":{"SS_N":"S0308","n_feeders":1,"feeders":"F2907","SS_HC":202,"SS_Q":0,"SS_QC":0,"SS_PR":"0.00","overlap":1,"loc_method":"single-feeder (approx)"}},{"type":"Feature","geometry":{"type":"Point","coordinates":[-88.20643,41.33782]},"properties":{"SS_N":"S0749","n_feeders":2,"feeders":"F5528,F5618","SS_HC":795,"SS_Q":0,"SS_QC":0,"SS_PR":"0.00","overlap":2,"loc_method":"convergence"}},{"type":"Feature","geometry":{"type":"Point","coordinates":[-88.17828,41.29218]},"properties":{"SS_N":"S0672","n_feeders":8,"feeders":"F1830,F3075,F4079,F4081,F5491,F5645,F5738,F5900","SS_HC":0,"SS_Q":63785,"SS_QC":12,"SS_PR":"0.63","overlap":6,"loc_method":"convergence"}},{"type":"Feature","geometry":{"type":"Point","coordinates":[-87.81757,41.54403]},"properties":{"SS_N":"S0584","n_feeders":24,"feeders":"F2761,F2825,F2909,F3077,F3079,F3081,F3413,F3415,F3417,F3419,F3421,F4085,F4087,F4089,F4091,F4093,F4095,F4097,F4099,F4101,F4103,F4105,F5620,F5621","SS_HC":13535,"SS_Q":9745,"SS_QC":14,"SS_PR":"0.16","overlap":23,"loc_method":"convergence"}},{"type":"Feature","geometry":{"type":"Point","coordinates":[-88.05824,41.79773]},"properties":{"SS_N":"S0640","n_feeders":46,"feeders":"F0290,F1401,F1421,F1441,F1455,F1493,F1595,F1597,F1599,F1651,F1666,F1667,F1705,F1801,F1803,F1805,F1807,F1809,F1811,F1903,F1915,F1917,F1923,F1945,F1959,F2215,F2217,F2218,F2219,F2220,F2221,F2223,F2225,F2227,F2229,F2231,F2233,F2235,F2439,F2461,F2463,F2465,F2477,F2479,F2523,F2677","SS_HC":69684,"SS_Q":2694,"SS_QC":10,"SS_PR":"0.08","overlap":23,"loc_method":"convergence"}},{"type":"Feature","geometry":{"type":"Point","coordinates":[-88.35778,41.71231]},"properties":{"SS_N":"S0642","n_feeders":11,"feeders":"F0006,F2222,F2224,F2226,F2228,F2230,F2241,F2243,F2245,F2247,F2249","SS_HC":1012,"SS_Q":18762,"SS_QC":9,"SS_PR":"0.88","overlap":9,"loc_method":"convergence"}},{"type":"Feature","geometry":{"type":"Point","coordinates":[-89.49514,41.84293]},"properties":{"SS_N":"S0643","n_feeders":3,"feeders":"F1678,F1680,F1682","SS_HC":0,"SS_Q":12120,"SS_QC":6,"SS_PR":"0.10","overlap":2,"loc_method":"convergence"}},{"type":"Feature","geometry":{"type":"Point","coordinates":[-88.23177,41.79841]},"properties":{"SS_N":"S0646","n_feeders":28,"feeders":"F1495,F1505,F1603,F1623,F1686,F1688,F1690,F1692,F1694,F1696,F1817,F1819,F1823,F1857,F1859,F1913,F2265,F2267,F2269,F2277,F2279,F2283,F2287,F2345,F2347,F2349,F2351,F5802","SS_HC":10557,"SS_Q":32807,"SS_QC":23,"SS_PR":"0.60","overlap":11,"loc_method":"convergence"}},{"type":"Feature","geometry":{"type":"Point","coordinates":[-88.04428,41.89369]},"properties":{"SS_N":"S0652","n_feeders":62,"feeders":"F1395,F1447,F1449,F1501,F1509,F1521,F1611,F1613,F1615,F1633,F1653,F1663,F1673,F1726,F1728,F1730,F1835,F1837,F1841,F1843,F1855,F1871,F1873,F1877,F1879,F1887,F1919,F1925,F1939,F1957,F2239,F2301,F2303,F2305,F2307,F2309,F2311,F2313,F2315,F2317,F2319,F2353,F2373,F2375,F2377,F2379,F2383,F2385,F2387,F2389,F2391,F2405,F2467,F2469,F2471,F2473,F2505,F2509,F2511,F2533","SS_HC":64491,"SS_Q":3952,"SS_QC":5,"SS_PR":"0.17","overlap":19,"loc_method":"convergence"}},{"type":"Feature","geometry":{"type":"Point","coordinates":[-88.27382,41.38962]},"properties":{"SS_N":"S0521","n_feeders":2,"feeders":"F0018,F1778","SS_HC":20,"SS_Q":43092,"SS_QC":15,"SS_PR":"0.00","overlap":2,"loc_method":"convergence"}},{"type":"Feature","geometry":{"type":"Point","coordinates":[-88.22498,41.89319]},"properties":{"SS_N":"S0661","n_feeders":30,"feeders":"F1403,F1507,F1625,F1627,F1629,F1645,F1790,F1792,F1794,F1796,F1798,F1800,F1802,F1804,F1861,F1863,F1865,F1867,F1869,F2355,F2357,F2359,F2361,F2363,F2365,F2367,F2369,F2371,F2437,F5672","SS_HC":48221,"SS_Q":74246,"SS_QC":24,"SS_PR":"0.57","overlap":21,"loc_method":"convergence"}},{"type":"Feature","geometry":{"type":"Point","coordinates":[-88.65188,41.68336]},"properties":{"SS_N":"S0671","n_feeders":3,"feeders":"F0009,F1826,F5490","SS_HC":20,"SS_Q":24816,"SS_QC":7,"SS_PR":"0.23","overlap":2,"loc_method":"convergence"}},{"type":"Feature","geometry":{"type":"Point","coordinates":[-87.71294,41.75631]},"properties":{"SS_N":"S0696","n_feeders":27,"feeders":"F0097,F0175,F0331,F0333,F0335,F0645,F0647,F0649,F0651,F1269,F1271,F1273,F1275,F1277,F1279,F1281,F1283,F1285,F1287,F2294,F2296,F2298,F2300,F2302,F2304,F2306,F2308","SS_HC":11989,"SS_Q":395,"SS_QC":5,"SS_PR":"0.07","overlap":15,"loc_method":"convergence"}},{"type":"Feature","geometry":{"type":"Point","coordinates":[-87.63923,41.89182]},"properties":{"SS_N":"S0697","n_feeders":37,"feeders":"F0029,F0061,F0105,F0107,F0191,F0193,F0197,F0361,F0363,F0365,F0367,F0369,F0371,F0373,F0375,F0705,F0707,F0709,F0711,F0713,F0715,F0717,F0721,F0723,F0725,F0729,F0731,F1384,F1386,F1388,F1390,F2322,F2324,F2326,F2328,F2330,F2332","SS_HC":23282,"SS_Q":12500,"SS_QC":1,"SS_PR":"0.07","overlap":34,"loc_method":"convergence"}},{"type":"Feature","geometry":{"type":"Point","coordinates":[-87.64437,41.8822]},"properties":{"SS_N":"S0698","n_feeders":39,"feeders":"F0041,F0063,F0109,F0111,F0199,F0201,F0203,F0377,F0379,F0381,F0383,F0385,F0387,F0389,F0735,F0737,F0739,F0741,F0743,F0745,F0749,F0751,F0753,F0755,F0757,F0759,F0761,F2334,F2336,F2338,F2340,F2342,F2344,F2346,F2348,F5701,F5702,F5703,F5704","SS_HC":31409,"SS_Q":60,"SS_QC":1,"SS_PR":"0.00","overlap":34,"loc_method":"convergence"}},{"type":"Feature","geometry":{"type":"Point","coordinates":[-87.64123,41.8706]},"properties":{"SS_N":"S0706","n_feeders":41,"feeders":"F0043,F0117,F0119,F0215,F0217,F0219,F0221,F0411,F0413,F0415,F0417,F0419,F0421,F0423,F0425,F0803,F0805,F0807,F0809,F0811,F0813,F0815,F0817,F0819,F0821,F0823,F0825,F0827,F0829,F0831,F2350,F2352,F2354,F2356,F2358,F2360,F2362,F2364,F2366,F2368,F2370","SS_HC":30078,"SS_Q":0,"SS_QC":0,"SS_PR":"0.00","overlap":36,"loc_method":"convergence"}},{"type":"Feature","geometry":{"type":"Point","coordinates":[-87.62864,41.87552]},"properties":{"SS_N":"S0710","n_feeders":24,"feeders":"F0069,F0223,F0427,F0429,F0833,F0835,F0837,F0839,F2372,F2374,F2376,F2378,F2380,F2382,F2384,F2386,F2388,F2390,F2392,F2394,F2396,F2398,F2400,F2402","SS_HC":8910,"SS_Q":0,"SS_QC":0,"SS_PR":"0.00","overlap":22,"loc_method":"convergence"}},{"type":"Feature","geometry":{"type":"Point","coordinates":[-88.24929,41.37775]},"properties":{"SS_N":"S0310","n_feeders":1,"feeders":"F3423","SS_HC":56,"SS_Q":0,"SS_QC":0,"SS_PR":"0.01","overlap":1,"loc_method":"single-feeder (approx)"}},{"type":"Feature","geometry":{"type":"Point","coordinates":[-88.20894,41.62171]},"properties":{"SS_N":"S0587","n_feeders":19,"feeders":"F1636,F1668,F1670,F1672,F1674,F1736,F1742,F1776,F1820,F1824,F2741,F2911,F3083,F3425,F4107,F4109,F4111,F5622,F5834","SS_HC":4819,"SS_Q":5268,"SS_QC":9,"SS_PR":"0.23","overlap":16,"loc_method":"convergence"}},{"type":"Feature","geometry":{"type":"Point","coordinates":[-88.07911,41.53145]},"properties":{"SS_N":"S0588","n_feeders":7,"feeders":"F1413,F1918,F1932,F1976,F1994,F2090,F2128","SS_HC":3700,"SS_Q":710,"SS_QC":2,"SS_PR":"0.07","overlap":5,"loc_method":"convergence"}},{"type":"Feature","geometry":{"type":"Point","coordinates":[-88.3489,41.34684]},"properties":{"SS_N":"S0317","n_feeders":1,"feeders":"F1400","SS_HC":0,"SS_Q":0,"SS_QC":0,"SS_PR":"0.92","overlap":1,"loc_method":"single-feeder (approx)"}},{"type":"Feature","geometry":{"type":"Point","coordinates":[-88.22046,41.39576]},"properties":{"SS_N":"S0318","n_feeders":1,"feeders":"F1402","SS_HC":45,"SS_Q":0,"SS_QC":0,"SS_PR":"0.00","overlap":1,"loc_method":"single-feeder (approx)"}},{"type":"Feature","geometry":{"type":"Point","coordinates":[-88.28829,41.27866]},"properties":{"SS_N":"S0319","n_feeders":2,"feeders":"F1404,F1406","SS_HC":1189,"SS_Q":0,"SS_QC":0,"SS_PR":"0.03","overlap":2,"loc_method":"convergence"}},{"type":"Feature","geometry":{"type":"Point","coordinates":[-88.21613,41.26006]},"properties":{"SS_N":"S0320","n_feeders":3,"feeders":"F1408,F1410,F1412","SS_HC":21,"SS_Q":0,"SS_QC":0,"SS_PR":"0.07","overlap":2,"loc_method":"convergence"}},{"type":"Feature","geometry":{"type":"Point","coordinates":[-88.03861,41.49172]},"properties":{"SS_N":"S0595","n_feeders":10,"feeders":"F1414,F1416,F1418,F1420,F1422,F1424,F1426,F1428,F1430,F1432","SS_HC":2323,"SS_Q":21550,"SS_QC":9,"SS_PR":"0.85","overlap":8,"loc_method":"convergence"}},{"type":"Feature","geometry":{"type":"Point","coordinates":[-87.99815,41.5821]},"properties":{"SS_N":"S0596","n_feeders":5,"feeders":"F1436,F1438,F1440,F5516,F5624","SS_HC":126,"SS_Q":15084,"SS_QC":5,"SS_PR":"0.42","overlap":5,"loc_method":"convergence"}},{"type":"Feature","geometry":{"type":"Point","coordinates":[-87.99952,41.64557]},"properties":{"SS_N":"S0597","n_feeders":9,"feeders":"F1450,F1452,F1454,F1456,F1458,F1460,F1462,F1464,F1466","SS_HC":4054,"SS_Q":5500,"SS_QC":3,"SS_PR":"0.21","overlap":7,"loc_method":"convergence"}},{"type":"Feature","geometry":{"type":"Point","coordinates":[-89.03848,42.3185]},"properties":{"SS_N":"S0681","n_feeders":14,"feeders":"F2672,F2674,F2676,F2678,F2680,F2682,F2684,F2686,F2688,F2690,F2692,F2694,F2696,F2698","SS_HC":5665,"SS_Q":9815,"SS_QC":9,"SS_PR":"0.35","overlap":12,"loc_method":"convergence"}},{"type":"Feature","geometry":{"type":"Point","coordinates":[-89.02291,42.23553]},"properties":{"SS_N":"S0561","n_feeders":10,"feeders":"F1409,F1557,F1723,F1725,F1727,F2059,F2061,F2063,F2065,F5667","SS_HC":1368,"SS_Q":16518,"SS_QC":6,"SS_PR":"0.53","overlap":8,"loc_method":"convergence"}},{"type":"Feature","geometry":{"type":"Point","coordinates":[-89.06542,42.24298]},"properties":{"SS_N":"S0748","n_feeders":3,"feeders":"F5527,F5543,F5668","SS_HC":665,"SS_Q":0,"SS_QC":0,"SS_PR":"0.01","overlap":2,"loc_method":"convergence"}},{"type":"Feature","geometry":{"type":"Point","coordinates":[-89.35907,42.34067]},"properties":{"SS_N":"S0562","n_feeders":2,"feeders":"F1473,F2067","SS_HC":0,"SS_Q":31249,"SS_QC":8,"SS_PR":"1.32","overlap":1,"loc_method":"convergence"}},{"type":"Feature","geometry":{"type":"Point","coordinates":[-89.0696,42.19461]},"properties":{"SS_N":"S0563","n_feeders":7,"feeders":"F1559,F1729,F1731,F2069,F2071,F2073,F2075","SS_HC":607,"SS_Q":5397,"SS_QC":4,"SS_PR":"1.19","overlap":6,"loc_method":"convergence"}},{"type":"Feature","geometry":{"type":"Point","coordinates":[-89.04272,42.36151]},"properties":{"SS_N":"S0564","n_feeders":11,"feeders":"F1431,F1475,F1561,F1733,F1735,F1737,F2077,F2079,F2081,F2083,F2085","SS_HC":44,"SS_Q":20133,"SS_QC":11,"SS_PR":"0.56","overlap":10,"loc_method":"convergence"}},{"type":"Feature","geometry":{"type":"Point","coordinates":[-88.9699,42.29411]},"properties":{"SS_N":"S0565","n_feeders":9,"feeders":"F1399,F1563,F1739,F1741,F2087,F2089,F2091,F2093,F2095","SS_HC":1778,"SS_Q":26706,"SS_QC":8,"SS_PR":"0.74","overlap":9,"loc_method":"convergence"}},{"type":"Feature","geometry":{"type":"Point","coordinates":[-89.32052,42.29327]},"properties":{"SS_N":"S0566","n_feeders":2,"feeders":"F1565,F2097","SS_HC":0,"SS_Q":6925,"SS_QC":2,"SS_PR":"1.09","overlap":2,"loc_method":"convergence"}},{"type":"Feature","geometry":{"type":"Point","coordinates":[-88.94701,42.3633]},"properties":{"SS_N":"S0567","n_feeders":5,"feeders":"F1477,F1743,F2099,F2101,F5729","SS_HC":479,"SS_Q":18445,"SS_QC":7,"SS_PR":"1.02","overlap":5,"loc_method":"convergence"}},{"type":"Feature","geometry":{"type":"Point","coordinates":[-89.09542,42.23397]},"properties":{"SS_N":"S0691","n_feeders":13,"feeders":"F1433,F1567,F1569,F1745,F1747,F1749,F2103,F2105,F2107,F2109,F2111,F2113,F5801","SS_HC":4693,"SS_Q":7930,"SS_QC":5,"SS_PR":"0.33","overlap":12,"loc_method":"convergence"}},{"type":"Feature","geometry":{"type":"Point","coordinates":[-88.58729,41.14217]},"properties":{"SS_N":"S0355","n_feeders":1,"feeders":"F2115","SS_HC":0,"SS_Q":0,"SS_QC":0,"SS_PR":"0.25","overlap":1,"loc_method":"single-feeder (approx)"}},{"type":"Feature","geometry":{"type":"Point","coordinates":[-88.64298,41.05553]},"properties":{"SS_N":"S0364","n_feeders":1,"feeders":"F2131","SS_HC":119,"SS_Q":0,"SS_QC":0,"SS_PR":"0.09","overlap":1,"loc_method":"single-feeder (approx)"}},{"type":"Feature","geometry":{"type":"Point","coordinates":[-88.30888,41.09962]},"properties":{"SS_N":"S0377","n_feeders":1,"feeders":"F2147","SS_HC":0,"SS_Q":0,"SS_QC":0,"SS_PR":"0.09","overlap":1,"loc_method":"single-feeder (approx)"}},{"type":"Feature","geometry":{"type":"Point","coordinates":[-88.42416,41.09163]},"properties":{"SS_N":"S0486","n_feeders":1,"feeders":"F5669","SS_HC":670,"SS_Q":0,"SS_QC":0,"SS_PR":"0.03","overlap":1,"loc_method":"single-feeder (approx)"}},{"type":"Feature","geometry":{"type":"Point","coordinates":[-88.3151,41.18657]},"properties":{"SS_N":"S0380","n_feeders":1,"feeders":"F2153","SS_HC":0,"SS_Q":0,"SS_QC":0,"SS_PR":"0.34","overlap":1,"loc_method":"single-feeder (approx)"}},{"type":"Feature","geometry":{"type":"Point","coordinates":[-88.42519,41.68763]},"properties":{"SS_N":"S0602","n_feeders":6,"feeders":"F1445,F1617,F1845,F2321,F2323,F2325","SS_HC":1100,"SS_Q":17029,"SS_QC":7,"SS_PR":"0.56","overlap":4,"loc_method":"convergence"}},{"type":"Feature","geometry":{"type":"Point","coordinates":[-88.09514,41.6633]},"properties":{"SS_N":"S0603","n_feeders":10,"feeders":"F1417,F1619,F1849,F1851,F2331,F2333,F2335,F5521,F5670,F5671","SS_HC":3026,"SS_Q":14349,"SS_QC":8,"SS_PR":"0.52","overlap":10,"loc_method":"convergence"}},{"type":"Feature","geometry":{"type":"Point","coordinates":[-87.92284,41.92448]},"properties":{"SS_N":"S0665","n_feeders":12,"feeders":"F1419,F1511,F1635,F1637,F1881,F1883,F1885,F2395,F2397,F2399,F2403,F5891","SS_HC":4217,"SS_Q":7290,"SS_QC":3,"SS_PR":"0.21","overlap":11,"loc_method":"convergence"}},{"type":"Feature","geometry":{"type":"Point","coordinates":[-88.31993,41.75456]},"properties":{"SS_N":"S0490","n_feeders":4,"feeders":"F2234,F2257,F2259,F2275","SS_HC":273,"SS_Q":0,"SS_QC":0,"SS_PR":"0.06","overlap":3,"loc_method":"convergence"}},{"type":"Feature","geometry":{"type":"Point","coordinates":[-88.45721,42.12733]},"properties":{"SS_N":"S0600","n_feeders":5,"feeders":"F2236,F2238,F2253,F2255,F5538","SS_HC":0,"SS_Q":23043,"SS_QC":7,"SS_PR":"0.61","overlap":5,"loc_method":"convergence"}},{"type":"Feature","geometry":{"type":"Point","coordinates":[-88.4811,41.64459]},"properties":{"SS_N":"S0389","n_feeders":1,"feeders":"F2271","SS_HC":238,"SS_Q":0,"SS_QC":0,"SS_PR":"0.06","overlap":1,"loc_method":"single-feeder (approx)"}},{"type":"Feature","geometry":{"type":"Point","coordinates":[-88.50254,41.66031]},"properties":{"SS_N":"S0390","n_feeders":1,"feeders":"F1415","SS_HC":0,"SS_Q":0,"SS_QC":0,"SS_PR":"0.17","overlap":1,"loc_method":"single-feeder (approx)"}},{"type":"Feature","geometry":{"type":"Point","coordinates":[-88.43444,41.60927]},"properties":{"SS_N":"S0391","n_feeders":1,"feeders":"F1497","SS_HC":0,"SS_Q":0,"SS_QC":0,"SS_PR":"0.12","overlap":1,"loc_method":"single-feeder (approx)"}},{"type":"Feature","geometry":{"type":"Point","coordinates":[-88.44355,41.73875]},"properties":{"SS_N":"S0395","n_feeders":1,"feeders":"F1443","SS_HC":0,"SS_Q":0,"SS_QC":0,"SS_PR":"0.15","overlap":1,"loc_method":"single-feeder (approx)"}},{"type":"Feature","geometry":{"type":"Point","coordinates":[-88.37723,41.73846]},"properties":{"SS_N":"S0396","n_feeders":2,"feeders":"F1829,F2289","SS_HC":383,"SS_Q":0,"SS_QC":0,"SS_PR":"0.05","overlap":2,"loc_method":"convergence"}},{"type":"Feature","geometry":{"type":"Point","coordinates":[-88.44067,41.62131]},"properties":{"SS_N":"S0387","n_feeders":2,"feeders":"F1609,F2291","SS_HC":0,"SS_Q":0,"SS_QC":0,"SS_PR":"0.11","overlap":1,"loc_method":"convergence"}},{"type":"Feature","geometry":{"type":"Point","coordinates":[-88.44598,41.6829]},"properties":{"SS_N":"S0388","n_feeders":2,"feeders":"F1831,F2293","SS_HC":547,"SS_Q":0,"SS_QC":0,"SS_PR":"0.06","overlap":1,"loc_method":"convergence"}},{"type":"Feature","geometry":{"type":"Point","coordinates":[-88.40057,41.88254]},"properties":{"SS_N":"S0397","n_feeders":1,"feeders":"F2297","SS_HC":39,"SS_Q":0,"SS_QC":0,"SS_PR":"0.12","overlap":1,"loc_method":"single-feeder (approx)"}},{"type":"Feature","geometry":{"type":"Point","coordinates":[-87.99543,41.84032]},"properties":{"SS_N":"S0670","n_feeders":34,"feeders":"F1405,F1457,F1523,F1525,F1527,F1657,F1659,F1661,F1665,F1927,F1929,F1931,F1933,F1935,F1937,F1941,F1943,F2483,F2485,F2487,F2489,F2491,F2493,F2495,F2497,F2499,F2501,F2503,F2507,F2513,F2515,F2517,F2519,F5673","SS_HC":20257,"SS_Q":124,"SS_QC":4,"SS_PR":"0.02","overlap":27,"loc_method":"convergence"}},{"type":"Feature","geometry":{"type":"Point","coordinates":[-87.99403,41.91332]},"properties":{"SS_N":"S0609","n_feeders":8,"feeders":"F1459,F1671,F1953,F1955,F2539,F2541,F2543,F2545","SS_HC":4318,"SS_Q":186,"SS_QC":2,"SS_PR":"0.06","overlap":6,"loc_method":"convergence"}},{"type":"Feature","geometry":{"type":"Point","coordinates":[-88.04308,41.86048]},"properties":{"SS_N":"S0610","n_feeders":11,"feeders":"F1397,F1531,F1675,F1961,F1963,F1965,F2553,F2555,F2557,F2559,F2561","SS_HC":6015,"SS_Q":61,"SS_QC":2,"SS_PR":"0.08","overlap":8,"loc_method":"convergence"}},{"type":"Feature","geometry":{"type":"Point","coordinates":[-88.04592,41.83366]},"properties":{"SS_N":"S0612","n_feeders":12,"feeders":"F1535,F1681,F1683,F1973,F1975,F1977,F2579,F2581,F2583,F2585,F2587,F2589","SS_HC":5407,"SS_Q":2029,"SS_QC":2,"SS_PR":"0.17","overlap":11,"loc_method":"convergence"}},{"type":"Feature","geometry":{"type":"Point","coordinates":[-88.05925,41.75697]},"properties":{"SS_N":"S0613","n_feeders":12,"feeders":"F1425,F1537,F1685,F1979,F1981,F1983,F2591,F2593,F2595,F2597,F2599,F2601","SS_HC":3349,"SS_Q":526,"SS_QC":4,"SS_PR":"0.36","overlap":9,"loc_method":"convergence"}},{"type":"Feature","geometry":{"type":"Point","coordinates":[-87.93125,41.75993]},"properties":{"SS_N":"S0666","n_feeders":26,"feeders":"F1391,F1451,F1513,F1639,F1641,F1643,F1889,F1891,F1893,F1895,F1897,F1899,F1901,F2409,F2411,F2413,F2417,F2419,F2421,F2423,F2425,F2427,F2429,F2431,F2433,F2435","SS_HC":16042,"SS_Q":1842,"SS_QC":9,"SS_PR":"0.09","overlap":21,"loc_method":"convergence"}},{"type":"Feature","geometry":{"type":"Point","coordinates":[-88.16897,41.82781]},"properties":{"SS_N":"S0606","n_feeders":15,"feeders":"F1453,F1519,F1647,F1649,F1905,F1907,F1911,F2441,F2443,F2445,F2447,F2449,F2451,F2453,F2455","SS_HC":6946,"SS_Q":6435,"SS_QC":14,"SS_PR":"0.13","overlap":14,"loc_method":"convergence"}},{"type":"Feature","geometry":{"type":"Point","coordinates":[-88.0037,41.91265]},"properties":{"SS_N":"S0614","n_feeders":12,"feeders":"F1463,F1687,F1689,F1985,F1987,F1989,F2603,F2605,F2607,F2609,F2611,F2613","SS_HC":5480,"SS_Q":1993,"SS_QC":5,"SS_PR":"0.10","overlap":10,"loc_method":"convergence"}},{"type":"Feature","geometry":{"type":"Point","coordinates":[-88.09748,41.70379]},"properties":{"SS_N":"S0615","n_feeders":26,"feeders":"F1407,F1539,F1541,F1691,F1693,F1695,F1991,F1993,F1995,F1997,F1999,F2001,F2003,F2615,F2617,F2619,F2621,F2623,F2625,F2627,F2629,F2631,F2633,F2635,F2637,F2639","SS_HC":4873,"SS_Q":26249,"SS_QC":25,"SS_PR":"0.39","overlap":21,"loc_method":"convergence"}},{"type":"Feature","geometry":{"type":"Point","coordinates":[-88.07993,41.92885]},"properties":{"SS_N":"S0616","n_feeders":27,"feeders":"F1427,F1465,F1543,F1545,F1697,F1699,F1701,F2005,F2007,F2009,F2011,F2013,F2015,F2641,F2643,F2645,F2647,F2649,F2651,F2653,F2655,F2657,F2659,F2663,F2665,F5556,F5674","SS_HC":10404,"SS_Q":6371,"SS_QC":10,"SS_PR":"0.16","overlap":26,"loc_method":"convergence"}},{"type":"Feature","geometry":{"type":"Point","coordinates":[-88.23641,42.02646]},"properties":{"SS_N":"S0617","n_feeders":10,"feeders":"F1467,F1703,F2017,F2019,F2021,F2667,F2669,F2671,F2673,F2675","SS_HC":4045,"SS_Q":4267,"SS_QC":6,"SS_PR":"0.24","overlap":8,"loc_method":"convergence"}},{"type":"Feature","geometry":{"type":"Point","coordinates":[-88.03176,41.9473]},"properties":{"SS_N":"S0618","n_feeders":10,"feeders":"F1547,F2023,F2025,F2027,F2679,F2681,F2683,F2687,F5676,F5677","SS_HC":4646,"SS_Q":3346,"SS_QC":5,"SS_PR":"0.15","overlap":8,"loc_method":"convergence"}},{"type":"Feature","geometry":{"type":"Point","coordinates":[-87.9354,41.85104]},"properties":{"SS_N":"S0619","n_feeders":29,"feeders":"F1469,F1549,F1551,F1709,F1711,F1713,F1715,F2029,F2031,F2033,F2035,F2037,F2039,F2041,F2043,F2691,F2693,F2695,F2697,F2699,F2701,F2703,F2705,F2707,F2709,F2711,F2713,F2715,F2717","SS_HC":21561,"SS_Q":3099,"SS_QC":3,"SS_PR":"0.04","overlap":21,"loc_method":"convergence"}},{"type":"Feature","geometry":{"type":"Point","coordinates":[-88.29911,41.70779]},"properties":{"SS_N":"S0628","n_feeders":17,"feeders":"F0292,F0294,F0296,F0298,F0300,F0302,F0304,F0306,F0308,F0310,F0312,F0314,F0316,F0318,F0320,F0322,F0324","SS_HC":5052,"SS_Q":11869,"SS_QC":14,"SS_PR":"0.29","overlap":16,"loc_method":"convergence"}},{"type":"Feature","geometry":{"type":"Point","coordinates":[-88.13542,41.90072]},"properties":{"SS_N":"S0630","n_feeders":25,"feeders":"F0326,F0328,F0330,F0332,F0334,F0336,F0338,F0340,F0342,F0344,F0346,F0348,F0350,F0352,F0354,F0356,F0358,F0360,F0362,F0364,F0366,F0368,F0370,F0372,F0374","SS_HC":10727,"SS_Q":757,"SS_QC":7,"SS_PR":"0.10","overlap":21,"loc_method":"convergence"}},{"type":"Feature","geometry":{"type":"Point","coordinates":[-87.6182,41.66351]},"properties":{"SS_N":"S0705","n_feeders":18,"feeders":"F0099,F0179,F0341,F0343,F0376,F0378,F0661,F0663,F0665,F0667,F1305,F1307,F1309,F1311,F1313,F1315,F1317,F1319","SS_HC":2023,"SS_Q":3617,"SS_QC":3,"SS_PR":"0.49","overlap":16,"loc_method":"convergence"}},{"type":"Feature","geometry":{"type":"Point","coordinates":[-88.15087,41.98011]},"properties":{"SS_N":"S0624","n_feeders":25,"feeders":"F0102,F0104,F0106,F0108,F0110,F0112,F0114,F0116,F0118,F0120,F0122,F0124,F0126,F0128,F0130,F0132,F0134,F0136,F0138,F0140,F0142,F0144,F0146,F0148,F0150","SS_HC":5818,"SS_Q":12860,"SS_QC":11,"SS_PR":"0.23","overlap":22,"loc_method":"convergence"}},{"type":"Feature","geometry":{"type":"Point","coordinates":[-88.00272,41.74855]},"properties":{"SS_N":"S0626","n_feeders":24,"feeders":"F0188,F0190,F0192,F0194,F0196,F0198,F0200,F0202,F0204,F0206,F0208,F0210,F0212,F0214,F0216,F0218,F0220,F0222,F0224,F0226,F0228,F0230,F0232,F0234","SS_HC":11137,"SS_Q":15790,"SS_QC":10,"SS_PR":"0.26","overlap":23,"loc_method":"convergence"}},{"type":"Feature","geometry":{"type":"Point","coordinates":[-88.23358,41.74781]},"properties":{"SS_N":"S0627","n_feeders":27,"feeders":"F0236,F0238,F0240,F0242,F0244,F0246,F0248,F0250,F0252,F0254,F0256,F0258,F0260,F0262,F0264,F0266,F0268,F0270,F0272,F0274,F0276,F0278,F0280,F0282,F0284,F0286,F0288","SS_HC":23588,"SS_Q":1077,"SS_QC":7,"SS_PR":"0.08","overlap":19,"loc_method":"convergence"}},{"type":"Feature","geometry":{"type":"Point","coordinates":[-87.83355,41.95932]},"properties":{"SS_N":"S0631","n_feeders":22,"feeders":"F0740,F0742,F0744,F0746,F0748,F0750,F0752,F0754,F0756,F0758,F0760,F0762,F0764,F0766,F0768,F0770,F0772,F0774,F0776,F0778,F0780,F5692","SS_HC":14278,"SS_Q":50,"SS_QC":1,"SS_PR":"0.02","overlap":21,"loc_method":"convergence"}},{"type":"Feature","geometry":{"type":"Point","coordinates":[-87.9539,41.92374]},"properties":{"SS_N":"S0620","n_feeders":10,"feeders":"F1429,F1553,F1717,F2045,F2047,F2719,F2721,F2723,F2725,F2727","SS_HC":4508,"SS_Q":2155,"SS_QC":5,"SS_PR":"0.10","overlap":9,"loc_method":"convergence"}},{"type":"Feature","geometry":{"type":"Point","coordinates":[-88.28236,42.03073]},"properties":{"SS_N":"S0622","n_feeders":24,"feeders":"F0024,F0026,F0028,F0030,F0032,F0034,F0036,F0038,F0040,F0042,F0044,F0046,F0048,F0050,F0052,F0054,F0056,F0058,F0060,F0062,F0064,F1389,F1721,F2739","SS_HC":11527,"SS_Q":14000,"SS_QC":9,"SS_PR":"0.18","overlap":21,"loc_method":"convergence"}},{"type":"Feature","geometry":{"type":"Point","coordinates":[-88.34452,42.08158]},"properties":{"SS_N":"S0623","n_feeders":15,"feeders":"F0070,F0072,F0074,F0076,F0078,F0080,F0082,F0084,F0086,F0088,F0090,F0092,F0094,F0096,F5529","SS_HC":7476,"SS_Q":18815,"SS_QC":8,"SS_PR":"0.33","overlap":11,"loc_method":"convergence"}},{"type":"Feature","geometry":{"type":"Point","coordinates":[-87.62973,41.893]},"properties":{"SS_N":"S0635","n_feeders":31,"feeders":"F0033,F0079,F0141,F0257,F0259,F0261,F0263,F0495,F0497,F0499,F0501,F0503,F0505,F0509,F0511,F0971,F0973,F0975,F0979,F0981,F0983,F0987,F0989,F0991,F0993,F0995,F0997,F0999,F1001,F1003,F1005","SS_HC":23535,"SS_Q":130,"SS_QC":1,"SS_PR":"0.00","overlap":28,"loc_method":"convergence"}},{"type":"Feature","geometry":{"type":"Point","coordinates":[-87.67399,41.98698]},"properties":{"SS_N":"S0737","n_feeders":33,"feeders":"F1010,F1012,F1014,F1016,F1018,F1020,F1022,F1024,F1026,F1028,F1030,F1032,F1034,F1036,F1038,F1040,F1042,F1044,F1046,F1048,F1050,F1052,F1054,F1056,F1058,F1060,F1062,F1064,F1068,F1070,F1072,F1074,F1076","SS_HC":24549,"SS_Q":158,"SS_QC":3,"SS_PR":"0.01","overlap":27,"loc_method":"convergence"}},{"type":"Feature","geometry":{"type":"Point","coordinates":[-87.67689,41.74893]},"properties":{"SS_N":"S0636","n_feeders":8,"feeders":"F0163,F0307,F0595,F0597,F1171,F1173,F1175,F1177","SS_HC":4680,"SS_Q":167,"SS_QC":5,"SS_PR":"0.06","overlap":7,"loc_method":"convergence"}},{"type":"Feature","geometry":{"type":"Point","coordinates":[-87.62023,41.69708]},"properties":{"SS_N":"S0703","n_feeders":16,"feeders":"F0023,F0177,F0337,F0339,F0653,F0655,F0657,F0659,F1289,F1291,F1293,F1295,F1297,F1299,F1301,F1303","SS_HC":5050,"SS_Q":3100,"SS_QC":8,"SS_PR":"0.12","overlap":13,"loc_method":"convergence"}},{"type":"Feature","geometry":{"type":"Point","coordinates":[-87.54984,41.66314]},"properties":{"SS_N":"S0714","n_feeders":17,"feeders":"F0059,F0181,F0345,F0347,F0669,F0671,F0673,F0675,F1321,F1323,F1325,F1327,F1329,F1331,F1333,F1335,F5807","SS_HC":3168,"SS_Q":9179,"SS_QC":3,"SS_PR":"0.38","overlap":13,"loc_method":"convergence"}},{"type":"Feature","geometry":{"type":"Point","coordinates":[-87.58686,41.7524]},"properties":{"SS_N":"S0509","n_feeders":1,"feeders":"F5808","SS_HC":10083,"SS_Q":0,"SS_QC":0,"SS_PR":"0.04","overlap":1,"loc_method":"single-feeder (approx)"}}]}