{
 "type": "FeatureCollection",
 "name": "il_grid_plan_unlocated",
 "crs": {
  "type": "name",
  "properties": {
   "name": "urn:ogc:def:crs:OGC:1.3:CRS84"
  }
 },
 "features": [
  {
   "type": "Feature",
   "geometry": null,
   "properties": {
    "utility": "Ameren Illinois",
    "docket": "26-0051",
    "status": "proposed",
    "project_id": "",
    "project_name": "Tamarack - Second Transformer",
    "category": "Capacity Expansion",
    "asset_type": "transformer addition",
    "feeder_id": "",
    "substation": "",
    "place": "",
    "county": "",
    "region": "",
    "program_year": 2031,
    "cost_usd": 4088100,
    "est_headroom_mw": "",
    "loc_method": "unresolved",
    "uncertainty_mi": "",
    "hosting_capacity_flag": "possible",
    "removal_risk": "low",
    "risk_reason": "Party asks total ~$450M against $2.68B (~17%), far milder than the 2023 rejection, and ICC Staff finds the plan substantially compliant. Only one Capacity Expansion project is targeted for removal.",
    "n_projects": "",
    "program_id": "",
    "itn": "",
    "ce_type": "",
    "voltage_kv": "",
    "driver": "",
    "nwa_status": "",
    "source": "ICC Staff Ex. 15.02 (Docket 26-0051), 2026-05-07",
    "notes": "Place 'Tamarack' not resolved to an Illinois municipality - VERIFY."
   }
  },
  {
   "type": "Feature",
   "geometry": null,
   "properties": {
    "utility": "Ameren Illinois",
    "docket": "26-0051",
    "status": "proposed",
    "project_id": "",
    "project_name": "Fargo 2 - New Substation Construction",
    "category": "Capacity Expansion",
    "asset_type": "NEW substation",
    "feeder_id": "",
    "substation": "",
    "place": "",
    "county": "",
    "region": "",
    "program_year": 2028,
    "cost_usd": 3042102,
    "est_headroom_mw": "",
    "loc_method": "unresolved",
    "uncertainty_mi": "",
    "hosting_capacity_flag": "possible",
    "removal_risk": "low",
    "risk_reason": "Party asks total ~$450M against $2.68B (~17%), far milder than the 2023 rejection, and ICC Staff finds the plan substantially compliant. Only one Capacity Expansion project is targeted for removal.",
    "n_projects": "",
    "program_id": "",
    "itn": "",
    "ce_type": "",
    "voltage_kv": "",
    "driver": "",
    "nwa_status": "",
    "source": "ICC Staff Ex. 15.02 (Docket 26-0051), 2026-05-07",
    "notes": "Place 'Fargo' not resolved to an Illinois municipality - VERIFY. Paired with Fargo Subst Site Purchase."
   }
  },
  {
   "type": "Feature",
   "geometry": null,
   "properties": {
    "utility": "Ameren Illinois",
    "docket": "26-0051",
    "status": "proposed",
    "project_id": "AIC13504",
    "project_name": "Hosting Capacity (Proactive)",
    "category": "DER Integration",
    "asset_type": "program",
    "feeder_id": "",
    "substation": "",
    "place": "",
    "county": "",
    "region": "",
    "program_year": "2028-2031",
    "cost_usd": 19979744,
    "est_headroom_mw": "",
    "loc_method": "system_wide",
    "uncertainty_mi": "",
    "hosting_capacity_flag": "explicit",
    "removal_risk": "low",
    "risk_reason": "Party asks total ~$450M against $2.68B (~17%), far milder than the 2023 rejection, and ICC Staff finds the plan substantially compliant. Only one Capacity Expansion project is targeted for removal.",
    "n_projects": "",
    "program_id": "",
    "itn": "",
    "ce_type": "",
    "voltage_kv": "",
    "driver": "",
    "nwa_status": "",
    "source": "ICC Staff Ex. 15.02 (Docket 26-0051), 2026-05-07",
    "notes": "Proactive Hosting Capacity program (Appendix M). Feeders selected by weighted scoring model; NO candidate feeder list published. Workshops only begin 2028 post-approval."
   }
  },
  {
   "type": "Feature",
   "geometry": null,
   "properties": {
    "utility": "Ameren Illinois",
    "docket": "26-0051",
    "status": "proposed",
    "project_id": "AIC13503",
    "project_name": "DER System Impacts",
    "category": "DER Integration",
    "asset_type": "program",
    "feeder_id": "",
    "substation": "",
    "place": "",
    "county": "",
    "region": "",
    "program_year": "2028-2031",
    "cost_usd": 25174943,
    "est_headroom_mw": "",
    "loc_method": "system_wide",
    "uncertainty_mi": "",
    "hosting_capacity_flag": "explicit",
    "removal_risk": "low",
    "risk_reason": "Party asks total ~$450M against $2.68B (~17%), far milder than the 2023 rejection, and ICC Staff finds the plan substantially compliant. Only one Capacity Expansion project is targeted for removal.",
    "n_projects": "",
    "program_id": "",
    "itn": "",
    "ce_type": "",
    "voltage_kv": "",
    "driver": "",
    "nwa_status": "",
    "source": "ICC Staff Ex. 15.02 (Docket 26-0051), 2026-05-07",
    "notes": "Mitigates DER impacts / bidirectional flow."
   }
  },
  {
   "type": "Feature",
   "geometry": null,
   "properties": {
    "utility": "Ameren Illinois",
    "docket": "26-0051",
    "status": "proposed",
    "project_id": "AIC12306",
    "project_name": "Prospective Capacity Increase for Unidentified Large Load Customers (PED)",
    "category": "Capacity Expansion",
    "asset_type": "program",
    "feeder_id": "",
    "substation": "",
    "place": "",
    "county": "",
    "region": "",
    "program_year": "2028-2031",
    "cost_usd": 44100000,
    "est_headroom_mw": "",
    "loc_method": "system_wide",
    "uncertainty_mi": "",
    "hosting_capacity_flag": "possible",
    "removal_risk": "high",
    "risk_reason": "Both the Illinois AG ($45.0M) and CUB ($44.1M) seek FULL removal. AG calls it imprudent and inappropriate; CUB calls it 'build it and they will come.'",
    "n_projects": "",
    "program_id": "",
    "itn": "",
    "ce_type": "",
    "voltage_kv": "",
    "driver": "",
    "nwa_status": "",
    "source": "ICC Staff Ex. 15.02 (Docket 26-0051), 2026-05-07",
    "notes": "HIGH REMOVAL RISK: both the Illinois AG ($45.0M) and CUB ($44.1M) seek full removal. No locations in record."
   }
  },
  {
   "type": "Feature",
   "geometry": null,
   "properties": {
    "utility": "Ameren Illinois",
    "docket": "22-0487",
    "status": "approved",
    "project_id": "AIC13114",
    "project_name": "DER System Impacts - Substation (child)",
    "category": "DER Integration",
    "asset_type": "substation upgrade",
    "feeder_id": "",
    "substation": "",
    "place": "",
    "county": "",
    "region": "",
    "program_year": "",
    "cost_usd": "",
    "est_headroom_mw": "",
    "loc_method": "unresolved",
    "uncertainty_mi": "",
    "hosting_capacity_flag": "explicit",
    "removal_risk": "none - approved",
    "risk_reason": "Already approved by the ICC and in execution. Timing can still slip: Ameren's Sidney and New Berlin projects were both dropped from the 2024-2027 portfolio after approval.",
    "n_projects": "",
    "program_id": "",
    "itn": "",
    "ce_type": "",
    "voltage_kv": "",
    "driver": "",
    "nwa_status": "",
    "source": "Ameren 2025 Annual Report - Electric Distribution (Docket 22-0487), 2026-03-31",
    "notes": "Placed in service 2025. UNDERLYING SUBSTATION NOT NAMED in the report - real gap."
   }
  },
  {
   "type": "Feature",
   "geometry": null,
   "properties": {
    "utility": "Ameren Illinois",
    "docket": "22-0487",
    "status": "approved",
    "project_id": "AIC13483",
    "project_name": "DER System Impacts - Substation (child)",
    "category": "DER Integration",
    "asset_type": "substation upgrade",
    "feeder_id": "",
    "substation": "",
    "place": "",
    "county": "",
    "region": "",
    "program_year": "",
    "cost_usd": "",
    "est_headroom_mw": "",
    "loc_method": "unresolved",
    "uncertainty_mi": "",
    "hosting_capacity_flag": "explicit",
    "removal_risk": "none - approved",
    "risk_reason": "Already approved by the ICC and in execution. Timing can still slip: Ameren's Sidney and New Berlin projects were both dropped from the 2024-2027 portfolio after approval.",
    "n_projects": "",
    "program_id": "",
    "itn": "",
    "ce_type": "",
    "voltage_kv": "",
    "driver": "",
    "nwa_status": "",
    "source": "Ameren 2025 Annual Report - Electric Distribution (Docket 22-0487), 2026-03-31",
    "notes": "Funded 2025, in service 2026. UNDERLYING SUBSTATION NOT NAMED."
   }
  },
  {
   "type": "Feature",
   "geometry": null,
   "properties": {
    "utility": "ComEd",
    "docket": "26-0047",
    "status": "proposed",
    "project_id": "",
    "project_name": "Van Buren Substation",
    "category": "Capacity Planning & Management",
    "asset_type": "substation (unconfirmed type)",
    "feeder_id": "",
    "substation": "",
    "place": "",
    "county": "",
    "region": "",
    "program_year": "2028-2031",
    "cost_usd": "",
    "est_headroom_mw": "",
    "loc_method": "unresolved",
    "uncertainty_mi": "",
    "hosting_capacity_flag": "unknown",
    "removal_risk": "moderate",
    "risk_reason": "CUB seeks over $1B in total reductions from ComEd's $15.3B ask, including $238M of summer-peak adequacy investment for failure to evaluate non-wires alternatives.",
    "n_projects": "",
    "program_id": "",
    "itn": "",
    "ce_type": "",
    "voltage_kv": "",
    "driver": "",
    "nwa_status": "",
    "source": "ComEd MYIGP 2028-2031 (Docket 26-0047), filed 2026-01-16",
    "notes": "Named in filing text. UNCONFIRMED whether new-build, capacity addition, or merely referenced. Location unresolved."
   }
  },
  {
   "type": "Feature",
   "geometry": null,
   "properties": {
    "utility": "ComEd",
    "docket": "26-0047",
    "status": "proposed",
    "project_id": "",
    "project_name": "Keslinger Substation",
    "category": "Capacity Planning & Management",
    "asset_type": "substation (unconfirmed type)",
    "feeder_id": "",
    "substation": "",
    "place": "",
    "county": "",
    "region": "",
    "program_year": "2028-2031",
    "cost_usd": "",
    "est_headroom_mw": "",
    "loc_method": "unresolved",
    "uncertainty_mi": "",
    "hosting_capacity_flag": "unknown",
    "removal_risk": "moderate",
    "risk_reason": "CUB seeks over $1B in total reductions from ComEd's $15.3B ask, including $238M of summer-peak adequacy investment for failure to evaluate non-wires alternatives.",
    "n_projects": "",
    "program_id": "",
    "itn": "",
    "ce_type": "",
    "voltage_kv": "",
    "driver": "",
    "nwa_status": "",
    "source": "ComEd MYIGP 2028-2031 (Docket 26-0047), filed 2026-01-16",
    "notes": "Named in filing text. UNCONFIRMED type. Keslinger Road runs through the Geneva/DeKalb area but the site is NOT confirmed."
   }
  },
  {
   "type": "Feature",
   "geometry": null,
   "properties": {
    "utility": "ComEd",
    "docket": "26-0047",
    "status": "proposed",
    "project_id": "401005",
    "project_name": "New Substations (program)",
    "category": "Capacity Planning & Management",
    "asset_type": "program",
    "feeder_id": "",
    "substation": "",
    "place": "",
    "county": "",
    "region": "",
    "program_year": "2028-2031",
    "cost_usd": 611000000,
    "est_headroom_mw": "",
    "loc_method": "system_wide",
    "uncertainty_mi": "",
    "hosting_capacity_flag": "possible",
    "removal_risk": "moderate",
    "risk_reason": "CUB seeks over $1B in total reductions from ComEd's $15.3B ask, including $238M of summer-peak adequacy investment for failure to evaluate non-wires alternatives.",
    "n_projects": "",
    "program_id": "",
    "itn": "",
    "ce_type": "",
    "voltage_kv": "",
    "driver": "",
    "nwa_status": "",
    "source": "ComEd MYIGP 2028-2031 (Docket 26-0047), filed 2026-01-16",
    "notes": "~$611M capital 2028-2031, scope labeled 'System Wide'. Five new substations reported (three in Chicago, two elsewhere in northern Illinois)."
   }
  },
  {
   "type": "Feature",
   "geometry": null,
   "properties": {
    "utility": "ComEd",
    "docket": "26-0047",
    "status": "proposed",
    "project_id": "",
    "project_name": "Capacity additions at 70+ substations",
    "category": "Capacity Planning & Management",
    "asset_type": "substation capacity",
    "feeder_id": "",
    "substation": "",
    "place": "",
    "county": "",
    "region": "",
    "program_year": "2028-2031",
    "cost_usd": "",
    "est_headroom_mw": "",
    "loc_method": "system_wide",
    "uncertainty_mi": "",
    "hosting_capacity_flag": "possible",
    "removal_risk": "moderate",
    "risk_reason": "CUB seeks over $1B in total reductions from ComEd's $15.3B ask, including $238M of summer-peak adequacy investment for failure to evaluate non-wires alternatives.",
    "n_projects": "",
    "program_id": "",
    "itn": "",
    "ce_type": "",
    "voltage_kv": "",
    "driver": "",
    "nwa_status": "",
    "source": "ComEd MYIGP 2028-2031 (Docket 26-0047), filed 2026-01-16",
    "notes": "CRITICAL GAP: ComEd reports major demand increases at more than 70 substations and load growth localized across 55 substations, but DOES NOT PUBLICLY LIST THEM. Only a qualitative note that the largest-growth substations concentrate in dense urban areas, particularly the Chicago Central Business District. Planning trigger: 95-98% of substation capacity limit."
   }
  },
  {
   "type": "Feature",
   "geometry": null,
   "properties": {
    "utility": "ComEd",
    "docket": "26-0047",
    "status": "proposed",
    "project_id": "",
    "project_name": "Modernize Legacy Substations and Feeders (4kV-12kV conversion program)",
    "category": "Capacity Planning & Management",
    "asset_type": "voltage conversion program",
    "feeder_id": "",
    "substation": "",
    "place": "",
    "county": "",
    "region": "",
    "program_year": "2028-2031",
    "cost_usd": "",
    "est_headroom_mw": "",
    "loc_method": "system_wide",
    "uncertainty_mi": "",
    "hosting_capacity_flag": "explicit",
    "removal_risk": "moderate",
    "risk_reason": "CUB seeks over $1B in total reductions from ComEd's $15.3B ask, including $238M of summer-peak adequacy investment for failure to evaluate non-wires alternatives.",
    "n_projects": "",
    "program_id": "",
    "itn": "",
    "ce_type": "",
    "voltage_kv": "",
    "driver": "",
    "nwa_status": "",
    "source": "ComEd MYIGP 2028-2031 (Docket 26-0047), filed 2026-01-16",
    "notes": "Retires legacy 4kV, converts to 12kV. Historical 2023-2025 baseline: 23 4kV feeders converted, 5 station terminals updated. NO forward feeder list published for 2028-2031."
   }
  },
  {
   "type": "Feature",
   "geometry": null,
   "properties": {
    "utility": "ComEd",
    "docket": "22-0486/23-0055/24-0181",
    "status": "approved",
    "project_id": "8P233700",
    "project_name": "G53 & G56",
    "category": "Distribution Capacity Planning and Management",
    "asset_type": "capacity relief",
    "feeder_id": "G53,G56",
    "substation": "",
    "place": "",
    "county": "",
    "region": "",
    "program_year": 2026,
    "cost_usd": 8703174,
    "est_headroom_mw": "",
    "loc_method": "unresolved",
    "uncertainty_mi": "",
    "hosting_capacity_flag": "possible",
    "removal_risk": "none - approved",
    "risk_reason": "Already approved by the ICC and in execution. Timing can still slip: Ameren's Sidney and New Berlin projects were both dropped from the 2024-2027 portfolio after approval.",
    "n_projects": "",
    "program_id": "",
    "itn": "",
    "ce_type": "",
    "voltage_kv": "",
    "driver": "",
    "nwa_status": "",
    "source": "ComEd Q1 2026 Investment Report (Docket 22-0486), filed 2026-06-29",
    "notes": "ComEd real circuit designator - NOT joinable to the public hosting capacity map, which uses anonymized Feeder_N (F####). Verified no match."
   }
  },
  {
   "type": "Feature",
   "geometry": null,
   "properties": {
    "utility": "ComEd",
    "docket": "22-0486/23-0055/24-0181",
    "status": "approved",
    "project_id": "1P240201",
    "project_name": "Relieve 3PH Overload on X4859 & X4865 with X4872",
    "category": "Distribution Capacity Planning and Management",
    "asset_type": "capacity relief",
    "feeder_id": "X4859,X4865,X4872",
    "substation": "",
    "place": "",
    "county": "",
    "region": "",
    "program_year": 2026,
    "cost_usd": 7944074,
    "est_headroom_mw": "",
    "loc_method": "unresolved",
    "uncertainty_mi": "",
    "hosting_capacity_flag": "possible",
    "removal_risk": "none - approved",
    "risk_reason": "Already approved by the ICC and in execution. Timing can still slip: Ameren's Sidney and New Berlin projects were both dropped from the 2024-2027 portfolio after approval.",
    "n_projects": "",
    "program_id": "",
    "itn": "",
    "ce_type": "",
    "voltage_kv": "",
    "driver": "",
    "nwa_status": "",
    "source": "ComEd Q1 2026 Investment Report (Docket 22-0486), filed 2026-06-29",
    "notes": "ComEd real circuit designator - NOT joinable to the public hosting capacity map, which uses anonymized Feeder_N (F####). Verified no match."
   }
  },
  {
   "type": "Feature",
   "geometry": null,
   "properties": {
    "utility": "ComEd",
    "docket": "22-0486/23-0055/24-0181",
    "status": "approved",
    "project_id": "6P240001",
    "project_name": "S425",
    "category": "Distribution Capacity Planning and Management",
    "asset_type": "capacity relief",
    "feeder_id": "S425",
    "substation": "",
    "place": "",
    "county": "",
    "region": "",
    "program_year": 2026,
    "cost_usd": 5755874,
    "est_headroom_mw": "",
    "loc_method": "unresolved",
    "uncertainty_mi": "",
    "hosting_capacity_flag": "possible",
    "removal_risk": "none - approved",
    "risk_reason": "Already approved by the ICC and in execution. Timing can still slip: Ameren's Sidney and New Berlin projects were both dropped from the 2024-2027 portfolio after approval.",
    "n_projects": "",
    "program_id": "",
    "itn": "",
    "ce_type": "",
    "voltage_kv": "",
    "driver": "",
    "nwa_status": "",
    "source": "ComEd Q1 2026 Investment Report (Docket 22-0486), filed 2026-06-29",
    "notes": "ComEd real circuit designator - NOT joinable to the public hosting capacity map, which uses anonymized Feeder_N (F####). Verified no match."
   }
  },
  {
   "type": "Feature",
   "geometry": null,
   "properties": {
    "utility": "ComEd",
    "docket": "22-0486/23-0055/24-0181",
    "status": "approved",
    "project_id": "1P250403",
    "project_name": "Relieve TSS32 via transfer X3254 to X3146",
    "category": "Distribution Capacity Planning and Management",
    "asset_type": "capacity relief",
    "feeder_id": "X3254,X3146",
    "substation": "TSS32",
    "place": "",
    "county": "",
    "region": "",
    "program_year": 2026,
    "cost_usd": 5255733,
    "est_headroom_mw": "",
    "loc_method": "unresolved",
    "uncertainty_mi": "",
    "hosting_capacity_flag": "possible",
    "removal_risk": "none - approved",
    "risk_reason": "Already approved by the ICC and in execution. Timing can still slip: Ameren's Sidney and New Berlin projects were both dropped from the 2024-2027 portfolio after approval.",
    "n_projects": "",
    "program_id": "",
    "itn": "",
    "ce_type": "",
    "voltage_kv": "",
    "driver": "",
    "nwa_status": "",
    "source": "ComEd Q1 2026 Investment Report (Docket 22-0486), filed 2026-06-29",
    "notes": "ComEd real circuit designator - NOT joinable to the public hosting capacity map, which uses anonymized Feeder_N (F####). Verified no match."
   }
  },
  {
   "type": "Feature",
   "geometry": null,
   "properties": {
    "utility": "ComEd",
    "docket": "22-0486/23-0055/24-0181",
    "status": "approved",
    "project_id": "6P230200",
    "project_name": "J8031",
    "category": "Distribution Capacity Planning and Management",
    "asset_type": "capacity relief",
    "feeder_id": "J8031",
    "substation": "",
    "place": "",
    "county": "",
    "region": "",
    "program_year": 2026,
    "cost_usd": 5187572,
    "est_headroom_mw": "",
    "loc_method": "unresolved",
    "uncertainty_mi": "",
    "hosting_capacity_flag": "possible",
    "removal_risk": "none - approved",
    "risk_reason": "Already approved by the ICC and in execution. Timing can still slip: Ameren's Sidney and New Berlin projects were both dropped from the 2024-2027 portfolio after approval.",
    "n_projects": "",
    "program_id": "",
    "itn": "",
    "ce_type": "",
    "voltage_kv": "",
    "driver": "",
    "nwa_status": "",
    "source": "ComEd Q1 2026 Investment Report (Docket 22-0486), filed 2026-06-29",
    "notes": "ComEd real circuit designator - NOT joinable to the public hosting capacity map, which uses anonymized Feeder_N (F####). Verified no match."
   }
  },
  {
   "type": "Feature",
   "geometry": null,
   "properties": {
    "utility": "ComEd",
    "docket": "22-0486/23-0055/24-0181",
    "status": "approved",
    "project_id": "5P220200",
    "project_name": "E6022",
    "category": "Distribution Capacity Planning and Management",
    "asset_type": "capacity relief",
    "feeder_id": "E6022",
    "substation": "",
    "place": "",
    "county": "",
    "region": "",
    "program_year": 2026,
    "cost_usd": 4833472,
    "est_headroom_mw": "",
    "loc_method": "unresolved",
    "uncertainty_mi": "",
    "hosting_capacity_flag": "possible",
    "removal_risk": "none - approved",
    "risk_reason": "Already approved by the ICC and in execution. Timing can still slip: Ameren's Sidney and New Berlin projects were both dropped from the 2024-2027 portfolio after approval.",
    "n_projects": "",
    "program_id": "",
    "itn": "",
    "ce_type": "",
    "voltage_kv": "",
    "driver": "",
    "nwa_status": "",
    "source": "ComEd Q1 2026 Investment Report (Docket 22-0486), filed 2026-06-29",
    "notes": "ComEd real circuit designator - NOT joinable to the public hosting capacity map, which uses anonymized Feeder_N (F####). Verified no match."
   }
  },
  {
   "type": "Feature",
   "geometry": null,
   "properties": {
    "utility": "ComEd",
    "docket": "22-0486/23-0055/24-0181",
    "status": "approved",
    "project_id": "3P240400",
    "project_name": "Relieve Y1975 via 4-12kV Conversion on PERS046 and PERS949",
    "category": "Distribution Capacity Planning and Management",
    "asset_type": "capacity relief",
    "feeder_id": "Y1975,PERS046,PERS949",
    "substation": "",
    "place": "",
    "county": "",
    "region": "",
    "program_year": 2026,
    "cost_usd": 4031536,
    "est_headroom_mw": 8,
    "loc_method": "unresolved",
    "uncertainty_mi": "",
    "hosting_capacity_flag": "explicit",
    "removal_risk": "none - approved",
    "risk_reason": "Already approved by the ICC and in execution. Timing can still slip: Ameren's Sidney and New Berlin projects were both dropped from the 2024-2027 portfolio after approval.",
    "n_projects": "",
    "program_id": "",
    "itn": "",
    "ce_type": "",
    "voltage_kv": "",
    "driver": "",
    "nwa_status": "",
    "source": "ComEd Q1 2026 Investment Report (Docket 22-0486), filed 2026-06-29",
    "notes": "Two 4kV-12kV conversions at ~4 MW each = ~8 MW est. ComEd real circuit designator - NOT joinable to the public hosting capacity map, which uses anonymized Feeder_N (F####). Verified no match."
   }
  },
  {
   "type": "Feature",
   "geometry": null,
   "properties": {
    "utility": "ComEd",
    "docket": "22-0486/23-0055/24-0181",
    "status": "approved",
    "project_id": "7P243200",
    "project_name": "L10766",
    "category": "Distribution Capacity Planning and Management",
    "asset_type": "capacity relief",
    "feeder_id": "L10766",
    "substation": "",
    "place": "",
    "county": "",
    "region": "",
    "program_year": 2026,
    "cost_usd": 3658623,
    "est_headroom_mw": "",
    "loc_method": "unresolved",
    "uncertainty_mi": "",
    "hosting_capacity_flag": "possible",
    "removal_risk": "none - approved",
    "risk_reason": "Already approved by the ICC and in execution. Timing can still slip: Ameren's Sidney and New Berlin projects were both dropped from the 2024-2027 portfolio after approval.",
    "n_projects": "",
    "program_id": "",
    "itn": "",
    "ce_type": "",
    "voltage_kv": "",
    "driver": "",
    "nwa_status": "",
    "source": "ComEd Q1 2026 Investment Report (Docket 22-0486), filed 2026-06-29",
    "notes": "ComEd real circuit designator - NOT joinable to the public hosting capacity map, which uses anonymized Feeder_N (F####). Verified no match."
   }
  },
  {
   "type": "Feature",
   "geometry": null,
   "properties": {
    "utility": "ComEd",
    "docket": "22-0486/23-0055/24-0181",
    "status": "approved",
    "project_id": "6P230400",
    "project_name": "TDC561",
    "category": "Distribution Capacity Planning and Management",
    "asset_type": "capacity relief",
    "feeder_id": "TDC561",
    "substation": "",
    "place": "",
    "county": "",
    "region": "",
    "program_year": 2026,
    "cost_usd": 3579959,
    "est_headroom_mw": "",
    "loc_method": "unresolved",
    "uncertainty_mi": "",
    "hosting_capacity_flag": "possible",
    "removal_risk": "none - approved",
    "risk_reason": "Already approved by the ICC and in execution. Timing can still slip: Ameren's Sidney and New Berlin projects were both dropped from the 2024-2027 portfolio after approval.",
    "n_projects": "",
    "program_id": "",
    "itn": "",
    "ce_type": "",
    "voltage_kv": "",
    "driver": "",
    "nwa_status": "",
    "source": "ComEd Q1 2026 Investment Report (Docket 22-0486), filed 2026-06-29",
    "notes": "ComEd real circuit designator - NOT joinable to the public hosting capacity map, which uses anonymized Feeder_N (F####). Verified no match."
   }
  },
  {
   "type": "Feature",
   "geometry": null,
   "properties": {
    "utility": "ComEd",
    "docket": "22-0486/23-0055/24-0181",
    "status": "approved",
    "project_id": "3P211002",
    "project_name": "56TH144",
    "category": "Distribution Capacity Planning and Management",
    "asset_type": "capacity relief",
    "feeder_id": "56TH144",
    "substation": "",
    "place": "",
    "county": "",
    "region": "",
    "program_year": 2026,
    "cost_usd": 3221384,
    "est_headroom_mw": "",
    "loc_method": "unresolved",
    "uncertainty_mi": "",
    "hosting_capacity_flag": "possible",
    "removal_risk": "none - approved",
    "risk_reason": "Already approved by the ICC and in execution. Timing can still slip: Ameren's Sidney and New Berlin projects were both dropped from the 2024-2027 portfolio after approval.",
    "n_projects": "",
    "program_id": "",
    "itn": "",
    "ce_type": "",
    "voltage_kv": "",
    "driver": "",
    "nwa_status": "",
    "source": "ComEd Q1 2026 Investment Report (Docket 22-0486), filed 2026-06-29",
    "notes": "ComEd real circuit designator - NOT joinable to the public hosting capacity map, which uses anonymized Feeder_N (F####). Verified no match."
   }
  },
  {
   "type": "Feature",
   "geometry": null,
   "properties": {
    "utility": "ComEd",
    "docket": "22-0486/23-0055/24-0181",
    "status": "approved",
    "project_id": "1P250402",
    "project_name": "Relieve TSS38 via load transfer Y3871 to X3142",
    "category": "Distribution Capacity Planning and Management",
    "asset_type": "capacity relief",
    "feeder_id": "Y3871,X3142",
    "substation": "TSS38",
    "place": "",
    "county": "",
    "region": "",
    "program_year": 2026,
    "cost_usd": 2929204,
    "est_headroom_mw": "",
    "loc_method": "unresolved",
    "uncertainty_mi": "",
    "hosting_capacity_flag": "possible",
    "removal_risk": "none - approved",
    "risk_reason": "Already approved by the ICC and in execution. Timing can still slip: Ameren's Sidney and New Berlin projects were both dropped from the 2024-2027 portfolio after approval.",
    "n_projects": "",
    "program_id": "",
    "itn": "",
    "ce_type": "",
    "voltage_kv": "",
    "driver": "",
    "nwa_status": "",
    "source": "ComEd Q1 2026 Investment Report (Docket 22-0486), filed 2026-06-29",
    "notes": "ComEd real circuit designator - NOT joinable to the public hosting capacity map, which uses anonymized Feeder_N (F####). Verified no match."
   }
  },
  {
   "type": "Feature",
   "geometry": null,
   "properties": {
    "utility": "ComEd",
    "docket": "22-0486/23-0055/24-0181",
    "status": "approved",
    "project_id": "4P262600",
    "project_name": "Reduce customers on L1662 and L1664",
    "category": "Distribution Capacity Planning and Management",
    "asset_type": "capacity relief",
    "feeder_id": "L1662,L1664",
    "substation": "",
    "place": "",
    "county": "",
    "region": "",
    "program_year": 2026,
    "cost_usd": 2760503,
    "est_headroom_mw": "",
    "loc_method": "unresolved",
    "uncertainty_mi": "",
    "hosting_capacity_flag": "possible",
    "removal_risk": "none - approved",
    "risk_reason": "Already approved by the ICC and in execution. Timing can still slip: Ameren's Sidney and New Berlin projects were both dropped from the 2024-2027 portfolio after approval.",
    "n_projects": "",
    "program_id": "",
    "itn": "",
    "ce_type": "",
    "voltage_kv": "",
    "driver": "",
    "nwa_status": "",
    "source": "ComEd Q1 2026 Investment Report (Docket 22-0486), filed 2026-06-29",
    "notes": "ComEd real circuit designator - NOT joinable to the public hosting capacity map, which uses anonymized Feeder_N (F####). Verified no match."
   }
  },
  {
   "type": "Feature",
   "geometry": null,
   "properties": {
    "utility": "ComEd",
    "docket": "22-0486/23-0055/24-0181",
    "status": "approved",
    "project_id": "6P260201",
    "project_name": "DCJ29 Work",
    "category": "Distribution Capacity Planning and Management",
    "asset_type": "capacity relief",
    "feeder_id": "DCJ29",
    "substation": "",
    "place": "",
    "county": "",
    "region": "",
    "program_year": 2026,
    "cost_usd": 2501431,
    "est_headroom_mw": "",
    "loc_method": "unresolved",
    "uncertainty_mi": "",
    "hosting_capacity_flag": "possible",
    "removal_risk": "none - approved",
    "risk_reason": "Already approved by the ICC and in execution. Timing can still slip: Ameren's Sidney and New Berlin projects were both dropped from the 2024-2027 portfolio after approval.",
    "n_projects": "",
    "program_id": "",
    "itn": "",
    "ce_type": "",
    "voltage_kv": "",
    "driver": "",
    "nwa_status": "",
    "source": "ComEd Q1 2026 Investment Report (Docket 22-0486), filed 2026-06-29",
    "notes": "ComEd real circuit designator - NOT joinable to the public hosting capacity map, which uses anonymized Feeder_N (F####). Verified no match."
   }
  },
  {
   "type": "Feature",
   "geometry": null,
   "properties": {
    "utility": "ComEd",
    "docket": "22-0486/23-0055/24-0181",
    "status": "approved",
    "project_id": "3P233701",
    "project_name": "4/12kV THRP45",
    "category": "Distribution Capacity Planning and Management",
    "asset_type": "capacity relief",
    "feeder_id": "THRP45",
    "substation": "",
    "place": "",
    "county": "",
    "region": "",
    "program_year": 2026,
    "cost_usd": 2481087,
    "est_headroom_mw": 4,
    "loc_method": "unresolved",
    "uncertainty_mi": "",
    "hosting_capacity_flag": "explicit",
    "removal_risk": "none - approved",
    "risk_reason": "Already approved by the ICC and in execution. Timing can still slip: Ameren's Sidney and New Berlin projects were both dropped from the 2024-2027 portfolio after approval.",
    "n_projects": "",
    "program_id": "",
    "itn": "",
    "ce_type": "",
    "voltage_kv": "",
    "driver": "",
    "nwa_status": "",
    "source": "ComEd Q1 2026 Investment Report (Docket 22-0486), filed 2026-06-29",
    "notes": "4kV-12kV conversion, ~4 MW est. ComEd real circuit designator - NOT joinable to the public hosting capacity map, which uses anonymized Feeder_N (F####). Verified no match."
   }
  },
  {
   "type": "Feature",
   "geometry": null,
   "properties": {
    "utility": "ComEd",
    "docket": "22-0486/23-0055/24-0181",
    "status": "approved",
    "project_id": "5P233700",
    "project_name": "4:12 conversion to retire W107, W109, W102",
    "category": "Distribution Capacity Planning and Management",
    "asset_type": "capacity relief",
    "feeder_id": "W107,W109,W102",
    "substation": "",
    "place": "",
    "county": "",
    "region": "",
    "program_year": 2026,
    "cost_usd": 2332960,
    "est_headroom_mw": 12,
    "loc_method": "unresolved",
    "uncertainty_mi": "",
    "hosting_capacity_flag": "explicit",
    "removal_risk": "none - approved",
    "risk_reason": "Already approved by the ICC and in execution. Timing can still slip: Ameren's Sidney and New Berlin projects were both dropped from the 2024-2027 portfolio after approval.",
    "n_projects": "",
    "program_id": "",
    "itn": "",
    "ce_type": "",
    "voltage_kv": "",
    "driver": "",
    "nwa_status": "",
    "source": "ComEd Q1 2026 Investment Report (Docket 22-0486), filed 2026-06-29",
    "notes": "Three conversions at ~4 MW each = ~12 MW est. ComEd real circuit designator - NOT joinable to the public hosting capacity map, which uses anonymized Feeder_N (F####). Verified no match."
   }
  },
  {
   "type": "Feature",
   "geometry": null,
   "properties": {
    "utility": "ComEd",
    "docket": "22-0486/23-0055/24-0181",
    "status": "approved",
    "project_id": "6P260200",
    "project_name": "Install 12kV J3118",
    "category": "Distribution Capacity Planning and Management",
    "asset_type": "capacity relief",
    "feeder_id": "J3118",
    "substation": "",
    "place": "",
    "county": "",
    "region": "",
    "program_year": 2026,
    "cost_usd": 2300312,
    "est_headroom_mw": 8,
    "loc_method": "unresolved",
    "uncertainty_mi": "",
    "hosting_capacity_flag": "explicit",
    "removal_risk": "none - approved",
    "risk_reason": "Already approved by the ICC and in execution. Timing can still slip: Ameren's Sidney and New Berlin projects were both dropped from the 2024-2027 portfolio after approval.",
    "n_projects": "",
    "program_id": "",
    "itn": "",
    "ce_type": "",
    "voltage_kv": "",
    "driver": "",
    "nwa_status": "",
    "source": "ComEd Q1 2026 Investment Report (Docket 22-0486), filed 2026-06-29",
    "notes": "New 12kV circuit, ~8 MW est. ComEd real circuit designator - NOT joinable to the public hosting capacity map, which uses anonymized Feeder_N (F####). Verified no match."
   }
  },
  {
   "type": "Feature",
   "geometry": null,
   "properties": {
    "utility": "ComEd",
    "docket": "22-0486/23-0055/24-0181",
    "status": "approved",
    "project_id": "4P240200",
    "project_name": "New 12kV Feeder A8229",
    "category": "Distribution Capacity Planning and Management",
    "asset_type": "capacity relief",
    "feeder_id": "A8229",
    "substation": "",
    "place": "",
    "county": "",
    "region": "",
    "program_year": 2026,
    "cost_usd": 2236027,
    "est_headroom_mw": 8,
    "loc_method": "unresolved",
    "uncertainty_mi": "",
    "hosting_capacity_flag": "explicit",
    "removal_risk": "none - approved",
    "risk_reason": "Already approved by the ICC and in execution. Timing can still slip: Ameren's Sidney and New Berlin projects were both dropped from the 2024-2027 portfolio after approval.",
    "n_projects": "",
    "program_id": "",
    "itn": "",
    "ce_type": "",
    "voltage_kv": "",
    "driver": "",
    "nwa_status": "",
    "source": "ComEd Q1 2026 Investment Report (Docket 22-0486), filed 2026-06-29",
    "notes": "NEW 12kV feeder, ~8 MW est. ComEd real circuit designator - NOT joinable to the public hosting capacity map, which uses anonymized Feeder_N (F####). Verified no match."
   }
  },
  {
   "type": "Feature",
   "geometry": null,
   "properties": {
    "utility": "ComEd",
    "docket": "22-0486/23-0055/24-0181",
    "status": "approved",
    "project_id": "6P240003",
    "project_name": "D43/D44",
    "category": "Distribution Capacity Planning and Management",
    "asset_type": "capacity relief",
    "feeder_id": "D43,D44",
    "substation": "",
    "place": "",
    "county": "",
    "region": "",
    "program_year": 2026,
    "cost_usd": 2165958,
    "est_headroom_mw": "",
    "loc_method": "unresolved",
    "uncertainty_mi": "",
    "hosting_capacity_flag": "possible",
    "removal_risk": "none - approved",
    "risk_reason": "Already approved by the ICC and in execution. Timing can still slip: Ameren's Sidney and New Berlin projects were both dropped from the 2024-2027 portfolio after approval.",
    "n_projects": "",
    "program_id": "",
    "itn": "",
    "ce_type": "",
    "voltage_kv": "",
    "driver": "",
    "nwa_status": "",
    "source": "ComEd Q1 2026 Investment Report (Docket 22-0486), filed 2026-06-29",
    "notes": "ComEd real circuit designator - NOT joinable to the public hosting capacity map, which uses anonymized Feeder_N (F####). Verified no match."
   }
  },
  {
   "type": "Feature",
   "geometry": null,
   "properties": {
    "utility": "ComEd",
    "docket": "22-0486/23-0055/24-0181",
    "status": "approved",
    "project_id": "3P233700",
    "project_name": "4-12kV conversion of THRP42",
    "category": "Distribution Capacity Planning and Management",
    "asset_type": "capacity relief",
    "feeder_id": "THRP42",
    "substation": "",
    "place": "",
    "county": "",
    "region": "",
    "program_year": 2026,
    "cost_usd": 1770077,
    "est_headroom_mw": 4,
    "loc_method": "unresolved",
    "uncertainty_mi": "",
    "hosting_capacity_flag": "explicit",
    "removal_risk": "none - approved",
    "risk_reason": "Already approved by the ICC and in execution. Timing can still slip: Ameren's Sidney and New Berlin projects were both dropped from the 2024-2027 portfolio after approval.",
    "n_projects": "",
    "program_id": "",
    "itn": "",
    "ce_type": "",
    "voltage_kv": "",
    "driver": "",
    "nwa_status": "",
    "source": "ComEd Q1 2026 Investment Report (Docket 22-0486), filed 2026-06-29",
    "notes": "4kV-12kV conversion, ~4 MW est. ComEd real circuit designator - NOT joinable to the public hosting capacity map, which uses anonymized Feeder_N (F####). Verified no match."
   }
  },
  {
   "type": "Feature",
   "geometry": null,
   "properties": {
    "utility": "ComEd",
    "docket": "23-0055",
    "status": "approved",
    "project_id": "",
    "project_name": "Top 25 Priority Constrained Feeder Groups (DEFERRED)",
    "category": "Hosting Capacity & Interconnection",
    "asset_type": "constrained feeders",
    "feeder_id": "",
    "substation": "",
    "place": "",
    "county": "",
    "region": "",
    "program_year": "",
    "cost_usd": 83200000,
    "est_headroom_mw": "",
    "loc_method": "unresolved",
    "uncertainty_mi": "",
    "hosting_capacity_flag": "explicit",
    "removal_risk": "none - approved",
    "risk_reason": "Already approved by the ICC and in execution. Timing can still slip: Ameren's Sidney and New Berlin projects were both dropped from the 2024-2027 portfolio after approval.",
    "n_projects": "",
    "program_id": "",
    "itn": "",
    "ce_type": "",
    "voltage_kv": "",
    "driver": "",
    "nwa_status": "",
    "source": "ComEd Refiled Grid Plan Ch. V, compliance filing 2025-02-14",
    "notes": "22 of the original 25 capacity-constrained feeder investments remain unfunded (~$83.2M), deferred into the 2028-2031 plan. Published ONLY as raster figures (Fig 5-54 loadings, Fig 5-55 'General Location', explicitly caveated as NOT the exact solution location). Feeder IDs NOT machine-extractable. Plus 17 additional constrained feeder groups (~$48M) also unfunded."
   }
  }
 ]
}